team_id,name,email,phone,phone_id,street,city,state,zip,dollar,pick
1,Marion Cummings,ezlovdi@ticozo.ar,(687) 271-5790,895126,Kamce Parkway,Dubvaggi,AK,94246,$2756.06,RED
2,Earl Cross,ke@da.fk,(525) 381-8073,399084,Ukuh Highway,Cegnuto,CO,15662,$1388.11,GREEN
3,Sara Doyle,rumbinbed@vatvu.gd,(521) 580-4018,456299,Pihte Park,Pewjewna,FL,03369,$9171.63,RED
4,Timothy McCarthy,facvutko@wijo.cz,(887) 218-8908,275366,Sinim Parkway,Wablicgef,OH,79134,$8662.86,BLUE
5,Amanda Lamb,el@avje.sz,(343) 865-6540,321099,Zihu Square,Ijpiwla,MN,82893,$9550.23,RED
6,Kyle Edwards,zep@rud.la,(672) 565-7404,516497,Nasus Circle,Lonweuz,OH,19532,$9781.23,GREEN
7,Minerva Phillips,facpuw@guvuub.tm,(201) 233-6542,615466,Zuwlek Parkway,Fuvucima,MI,48093,$7938.80,RED
8,Ethan Watkins,ehupe@jiplitva.bt,(738) 782-5940,253297,Dila Turnpike,Ogsifahi,DC,11391,$6797.55,WHITE
9,Sallie Duncan,na@ogi.td,(517) 751-8422,603270,Hatdam Park,Ebupupav,VT,81416,$3111.21,BLUE
10,Wesley Lindsey,voew@dumecu.tc,(958) 774-5416,219728,Hihda Grove,Judagwi,DC,71665,$1901.34,WHITE
11,Sally Keller,rokzupkin@ziaruw.ir,(585) 356-9044,620444,Govci Pike,Tovovtu,AR,81813,$4237.66,WHITE
12,Leah Castro,nuf@avari.ro,(347) 864-3801,071903,Gofewi Place,Newufaj,DC,33099,$4251.98,YELLOW
13,Roxie Parsons,etu@rurgocpod.vu,(240) 543-6554,382649,Erro Place,Ekotoca,NJ,68274,$9776.00,BLUE
14,Don Obrien,taraga@lidtalol.io,(204) 284-9947,907593,Wujwa View,Ubootuima,SD,83126,$4469.31,GREEN
15,Clyde Horton,taciv@boit.se,(340) 766-7389,281668,Juwo View,Samwuccap,VA,72194,$8661.68,WHITE
16,Mabelle Moody,zov@dovza.vi,(416) 506-1336,276472,Cobov Extension,Katmegpig,GA,34907,$38.20,RED
17,Corey Hammond,onrah@ahowucek.sj,(314) 531-9854,761700,Seji Way,Wijkaret,OH,25267,$2624.41,WHITE
18,Jeanette Poole,ivvadu@noesupi.ni,(985) 924-9148,621608,Saiv Glen,Sazaaho,FL,12519,$2845.96,WHITE
19,Rebecca Hill,wig@woheb.cu,(559) 439-4775,114495,Moidu Extension,Ajgoloc,NM,07762,$3430.59,RED
20,Kevin Strickland,fickufgim@wih.mm,(450) 907-9305,106316,Lekcoz Place,Emvofma,NY,15915,$8725.01,GREEN
21,Sylvia Goodman,sispe@satla.tt,(709) 528-8368,567166,Dodme Parkway,Zawifjes,WA,62970,$6162.07,BLUE
22,Isabel Roberson,hafjuk@ceduno.pg,(782) 690-4826,235805,Ucacet Boulevard,Dohaojo,MN,51260,$4672.16,GREEN
23,Caroline McDaniel,he@laav.gh,(479) 689-2176,706943,Niga Center,Gujfeip,SC,71335,$1.02,WHITE
24,Nelle Welch,benlige@ejeku.edu,(759) 398-2331,523707,Mihuke View,Suvjubwib,KY,98501,$6639.46,YELLOW
25,Jeremiah Morris,kuokawav@aci.ci,(459) 309-7669,370233,Nokek Grove,Nehriumo,NH,47293,$9996.10,YELLOW
26,Isaiah Gonzales,koole@sabisem.cr,(784) 831-5192,630720,Fokzab Turnpike,Ojpeldog,PA,98739,$1258.15,WHITE
27,Luella Wood,ibipoowe@ci.je,(774) 900-3413,467419,Bisov Pike,Doomado,AR,59461,$2623.52,WHITE
28,Barry Watson,po@gu.edu,(872) 343-8847,218176,Nuwut Key,Woseka,FL,70856,$1948.62,BLUE
29,Randall Fox,ecifes@oz.au,(720) 590-3732,370913,Kobe Heights,Jakosow,MS,79126,$8760.00,BLUE
30,Ada Drake,fooffec@eh.lu,(822) 893-2475,173455,Ilulaf Pass,Wifimran,LA,50953,$9247.28,BLUE
31,Bertie Bradley,moc@rah.dj,(645) 507-1332,316305,Ceasa Pike,Ozohampok,RI,95802,$7937.45,YELLOW
32,Rosa Salazar,wipeb@fap.as,(541) 997-2003,691107,Lohpa Square,Kelhakna,DC,71177,$4006.32,GREEN
33,Dollie Holmes,how@ce.ly,(268) 951-5735,997685,Uzaho Road,Jurisu,NV,62111,$906.20,WHITE
34,Teresa Mack,vubet@vuc.cn,(340) 938-1115,721720,Selciv Circle,Jokpirgu,IN,65251,$7901.52,GREEN
35,Linnie McBride,vorcedni@habutvit.am,(637) 222-4748,104917,Rugohu Way,Sojjoczu,MN,29256,$1943.59,YELLOW
36,Carolyn Lawson,da@mupvuwpaf.cz,(519) 468-2899,261381,Owewih Key,Nobmeet,AZ,80571,$7269.06,YELLOW
37,Caleb McGee,fibvumfub@pu.vg,(663) 542-1934,908635,Sitke Place,Jufcatca,PA,33410,$107.67,RED
38,Howard Hayes,go@vevi.mc,(559) 232-7232,498037,Jeclop Boulevard,Utavaar,CA,16021,$9308.46,YELLOW
39,Bruce Stokes,zivom@miljene.lt,(802) 770-3256,088646,Wommun Pike,Ujavom,MD,62102,$3814.91,YELLOW
40,Rosie Barber,kipov@ekowe.ba,(945) 569-9328,801358,Loap Glen,Ujupozek,FL,71199,$9193.77,BLUE
41,Loretta Brewer,jitpul@kivfi.mn,(362) 941-6161,503853,Pumufi Park,Evomuznin,DE,20275,$4115.93,GREEN
42,Jeffrey Dixon,gozif@sor.ve,(771) 604-8647,453932,Idawoh Square,Vigzolug,LA,66900,$1791.49,RED
43,Scott Hale,vodoc@koster.eu,(402) 324-6952,234369,Nagfi Terrace,Hibdahi,KS,62041,$3793.50,WHITE
44,Della Phillips,pe@vaz.cv,(557) 933-9849,701105,Fefeb Junction,Hecbuvkib,MD,10713,$7534.39,GREEN
45,Leah Dean,sehi@jasujoh.ax,(622) 325-8336,091277,Zalma Pass,Detdode,WI,05218,$2566.41,GREEN
46,Danny Goodman,mosu@jub.bg,(241) 959-6117,646682,Supe Way,Wevbicef,UT,89143,$9625.98,GREEN
47,Richard Chambers,am@nioveamo.et,(947) 626-4442,381488,Gekaz Boulevard,Ibagigaci,PA,70949,$9387.56,YELLOW
48,Larry Reed,kebkof@won.ec,(408) 971-4015,992028,Mipir Lane,Toduzeg,MS,72221,$5349.77,BLUE
49,Emma Brewer,ediumu@jaotro.lr,(829) 564-5998,723184,Gacan Drive,Tumudiwa,HI,40825,$1395.07,YELLOW
50,Sophie Mathis,kev@re.td,(355) 513-2906,820711,Buig Parkway,Savsawpa,WI,24336,$9404.68,RED
51,Luis Martin,nov@ovdig.py,(513) 399-6075,292029,Gowoni Turnpike,Tesvotu,TX,72697,$8729.05,GREEN
52,Leon Riley,rilor@ohunurge.ag,(208) 528-9772,914314,Tifir Place,Zonogir,UT,22828,$8765.37,GREEN
53,Timothy Cohen,daspe@eglese.np,(771) 389-5316,688019,Goire Square,Asadeaw,AZ,58999,$3769.81,YELLOW
54,Aiden Cobb,poj@wawsi.br,(648) 829-6895,074074,Reziz River,Pojulga,CO,89571,$3786.37,BLUE
55,Isabella Glover,dotgeved@bufkodac.gl,(615) 717-8257,818431,Vegne Lane,Puguhocar,NJ,80326,$5762.28,WHITE
56,Nathaniel Higgins,siwpuli@jud.pe,(728) 872-6632,640675,Sarek Extension,Sujguoh,SC,85156,$4480.08,RED
57,Birdie Barnes,gara@fukacsa.sa,(215) 523-7408,423213,Zuto Park,Favetvu,MA,27014,$4417.32,YELLOW
58,Lewis Barrett,jorebag@gak.lv,(561) 443-4708,629741,Zipazu Junction,Gigzuamu,TN,93812,$7128.85,WHITE
59,Rachel Maldonado,fogu@agbuvvaf.re,(616) 825-6159,476863,Bekroh Road,Ungucgim,VA,14877,$1748.30,YELLOW
60,Chase Maldonado,asogafrer@vajuno.dk,(389) 272-3867,513541,Borije Highway,Otuuvcu,ND,28874,$424.70,RED
61,Francis Stanley,noagovu@piosfi.np,(467) 613-4302,164800,Irlo Lane,Cavazloc,GA,92221,$7930.82,RED
62,Oscar Aguilar,ra@dapozjaz.dk,(953) 436-2749,323804,Vuwa Loop,Hulovu,ID,11606,$1121.89,RED
63,Arthur Haynes,divnaw@ji.gq,(833) 680-7321,437606,Jizlef River,Tavepa,NJ,58742,$7576.68,WHITE
64,Emma Watson,ownihwo@ana.au,(441) 673-5982,031755,Jagwos Path,Zojvugmu,SD,39516,$2100.32,WHITE
65,Lora Conner,legjegoc@evu.ck,(286) 497-4680,070194,Wehuh Way,Zebfowud,AR,76658,$8688.97,BLUE
66,David Berry,wuz@gasbaghuj.cf,(444) 803-2813,270379,Moftav Heights,Jiahce,NC,85554,$6679.19,YELLOW
67,Cody Waters,ivi@bideg.aw,(688) 654-8190,081630,Soar Ridge,Caamivi,NJ,09077,$7029.58,GREEN
68,Flora Jones,pome@ha.ch,(783) 967-7483,714858,Dimim River,Hajamo,OR,48640,$7574.75,YELLOW
69,Sam Morris,tokuhgo@bawtuspuf.ni,(822) 555-5303,310702,Ebapo Pike,Sarwivpac,AR,80875,$8638.98,GREEN
70,Caleb Flowers,deruroca@vevniuh.cw,(319) 210-2744,439970,Hazlu Avenue,Ditemag,IL,15031,$4500.40,YELLOW
71,Chase Erickson,bewnejtis@wadnegka.sh,(426) 315-2097,798766,Cadulu River,Kifundav,KS,74868,$6379.57,WHITE
72,Claudia Jimenez,ho@jiban.ga,(238) 537-4479,013539,Soza Drive,Irbofap,ND,41005,$6651.52,BLUE
73,Elmer Stevens,boopvof@ha.ki,(535) 623-9838,233734,Jumac Drive,Fususahiw,ID,34232,$9353.00,YELLOW
74,Etta Manning,jarwu@necolda.mo,(879) 395-2379,672953,Etove Parkway,Reljoum,ME,31778,$6938.26,WHITE
75,Elmer Reid,lis@uwoimu.tz,(948) 452-5420,958227,Libkaf Highway,Sipiojo,MO,81649,$7071.72,RED
76,Lloyd Fuller,mo@ebfik.gl,(863) 948-9964,650909,Agahad Boulevard,Jiozku,SC,90716,$5801.80,YELLOW
77,Cornelia Robertson,pewo@liez.mr,(253) 233-6140,090095,Gejuc Center,Ufahulba,WI,83018,$5423.61,GREEN
78,Stella Kim,modid@hubhijez.pn,(358) 584-3016,737865,Diima Heights,Etetevmaz,IL,35470,$7614.73,YELLOW
79,Mitchell Peters,unwer@fih.nc,(735) 586-3303,457056,Ehaw Trail,Gulgusa,ND,18719,$5039.51,WHITE
80,Mario Williamson,li@vowilo.th,(806) 606-6266,248018,Feone Highway,Ciepaho,KS,43430,$3331.27,BLUE
81,Virgie Boone,feazlu@fobu.yt,(368) 225-5205,980345,Ujeoni Mill,Osrodu,UT,20565,$4927.50,GREEN
82,Gavin Jefferson,wegba@jezluv.se,(871) 786-3510,424306,Weuho View,Cumjeaj,RI,14482,$8298.38,GREEN
83,Mabel Wilkins,doclu@lec.mp,(813) 954-6999,207968,Wocec Place,Bausneg,NJ,59172,$3516.63,WHITE
84,Fanny Terry,gagazlev@javo.ml,(362) 209-2434,249118,Rulav Drive,Putacorar,SC,40455,$3381.99,BLUE
85,Nelle Caldwell,ror@gefa.pw,(657) 245-7164,466248,Soju Manor,Rewnotu,RI,49816,$3452.95,YELLOW
86,Eliza Greer,zoj@dihen.kh,(961) 737-1925,569772,Gimul Junction,Bawahme,NH,71039,$9984.92,BLUE
87,Elva Christensen,toghobiv@irke.ss,(248) 455-3750,830149,Kamlo Junction,Joferazid,MO,60943,$3741.11,WHITE
88,Josie Reynolds,dot@fevbebzib.vc,(553) 742-9894,418974,Okof Parkway,Likkevi,KY,30731,$557.13,WHITE
89,Gussie Schwartz,pimup@zuidu.al,(665) 501-2630,978291,Tarza Parkway,Kubazi,ME,41607,$3207.08,GREEN
90,Luis Watson,ogra@lufudjuz.bi,(214) 381-3086,527994,Domve Circle,Mivuje,MO,20472,$9897.12,YELLOW
91,Olive Berry,monpek@piw.vc,(426) 510-5402,632073,Wivje Boulevard,Porfani,WI,41770,$5390.20,YELLOW
92,Della Warren,ekheavo@wipudhoc.ir,(506) 923-5897,480321,Ubupe Mill,Dairdak,TN,02474,$3517.70,WHITE
93,James Rodgers,gura@zucakuk.va,(286) 494-3956,012042,Linur Extension,Ofbinpe,KS,78152,$1079.36,GREEN
94,Lucas Gonzalez,leca@zo.az,(903) 812-6277,359053,Ukmel Boulevard,Uhulirva,MD,02578,$4212.81,YELLOW
95,Jimmy Cole,zo@lainisa.jo,(756) 230-5355,581754,Cuzlid Terrace,Ujziate,WY,41952,$3276.48,RED
96,Jerome Medina,bo@hacsa.uk,(674) 333-2784,716380,Jemsi Terrace,Fuvesav,MD,62825,$1219.78,GREEN
97,Harriett Palmer,hibtagom@azowu.fj,(768) 938-4079,821370,Ziwhut Path,Unjuhew,NC,42018,$1123.18,GREEN
98,Max Alvarado,uku@he.is,(406) 931-3467,886575,Wewe Drive,Roralnac,NM,83554,$6592.58,WHITE
99,Winnie Sutton,ceb@etdu.bq,(315) 924-2093,907577,Pani Loop,Hohdagevo,MS,09631,$5938.79,RED
100,Edith Allison,itu@ma.cy,(805) 944-9658,056838,Jenen Path,Fikfelofe,MD,16520,$6061.62,GREEN
101,Mollie Lopez,zilbuk@elzoki.se,(426) 481-9563,927043,Gazfec Manor,Gifkunri,UT,37524,$720.71,GREEN
102,Craig Walton,ubkili@pi.iq,(782) 632-3403,914113,Pefi Turnpike,Hiicom,FL,97749,$1421.71,WHITE
103,Iva Cobb,iwiuse@vukire.bn,(416) 722-1293,262235,Jenak Loop,Iclanuh,RI,09119,$5894.52,BLUE
104,Herman Bell,pepa@ajoab.hr,(978) 816-7644,543034,Moane Parkway,Sosocazuc,OR,00635,$4398.26,WHITE
105,Tom Miles,fikkajdiv@cizbuc.jm,(811) 723-5499,714968,Ruju Parkway,Ceudeed,KS,56347,$3233.77,RED
106,Lucille Waters,buminpi@hojirolo.mt,(832) 262-5244,519598,Uvote Parkway,Sujgout,MN,79707,$7219.39,WHITE
107,Stanley Luna,ume@fek.cu,(942) 626-8668,819085,Isna Boulevard,Rejadip,LA,62702,$3298.26,WHITE
108,Dustin Huff,uno@hi.cd,(923) 303-2485,618578,Vave Path,Nakepgen,ID,55134,$9566.95,GREEN
109,Jason McCarthy,fej@kaolu.iq,(474) 698-8673,136924,Usiho Pass,Suodag,RI,53801,$9238.95,BLUE
110,Mason Frank,wam@takoh.uz,(742) 954-4353,121940,Gewnad Pike,Lirvike,MI,86959,$5970.82,GREEN
111,Bruce Caldwell,dozahpe@totuf.zw,(380) 598-3707,149223,Ganjuw Extension,Hocehefud,NY,47418,$9064.04,RED
112,Ida Gross,datog@jihi.gt,(213) 980-9101,845336,Gupef Key,Vedevuz,DE,37155,$7300.62,WHITE
113,Victoria Bryant,ci@beswatji.pe,(221) 884-8223,190222,Iljok Park,Hisejigos,NV,58015,$9436.72,RED
114,Olga Kennedy,oga@looto.cx,(925) 882-2251,969105,Bemwa Pike,Netateni,WI,46121,$6668.59,RED
115,Corey Adams,livelho@sanaf.ki,(756) 654-8427,632872,Elziw Place,Itpervos,LA,89712,$8993.59,RED
116,Charlie Oliver,butilnej@pa.gi,(553) 988-5843,043604,Cihuf Terrace,Letehsuw,OK,15479,$5912.90,GREEN
117,Theodore Watkins,moloocu@paril.io,(548) 650-4491,490572,Uweavo Court,Ruruvan,SD,43636,$6441.02,GREEN
118,Jon Carr,lin@ownis.bq,(622) 679-3243,247348,Jurzi Pass,Jibuzupa,MS,73783,$8608.33,GREEN
119,Ricardo Green,hazga@vum.pn,(920) 268-9227,177760,Wogera Lane,Vahfugar,SD,65251,$6515.07,YELLOW
120,Jayden Todd,altufom@tepud.edu,(858) 952-4148,808696,Pubem Turnpike,Camohro,IL,72636,$4359.75,RED
121,Eugenia Ortiz,uduwe@iwi.pw,(257) 688-2576,192416,Zugaf Terrace,Hegihke,NM,44936,$2315.38,GREEN
122,Alex Bryan,wezgif@opoles.ch,(362) 806-5799,176344,Unesa Terrace,Bitojo,CO,84211,$2389.03,YELLOW
123,William West,lim@cogecna.pg,(613) 357-2433,003267,Seriti Point,Mociciluf,SC,63691,$2417.04,BLUE
124,Jordan Norris,joteh@uvupuviw.bv,(722) 782-1396,658601,Anti Park,Fuordiv,ID,80461,$6723.38,YELLOW
125,Frederick Brewer,fetut@tuuf.lb,(729) 871-8920,328215,Paze Pass,Kocumiz,AZ,66893,$6988.18,RED
126,Elijah Briggs,og@amo.ky,(647) 737-3875,873297,Cihup Loop,Unehilew,MA,91267,$1243.62,YELLOW
127,Ruth Walton,culail@ugga.kh,(905) 861-2763,632226,Suglor Drive,Tokezgo,KY,46141,$3803.19,GREEN
128,Nancy Duncan,orinoug@tigan.mn,(316) 646-3981,895145,Maku Drive,Zevalre,PA,91307,$313.00,BLUE
129,Herbert Gonzales,tejowkip@vacdam.al,(911) 848-5789,739252,Commu Mill,Ewimoli,CO,34731,$4892.23,GREEN
130,Essie Hodges,zusbez@bahomal.hr,(880) 564-3588,517867,Vadi Path,Kuzdeiwa,WI,16883,$1505.05,GREEN
131,Adam Waters,himobi@wahew.cr,(765) 497-4651,326432,Towpov Junction,Dujosow,VA,73353,$7749.60,WHITE
132,Jay Logan,ruh@solofi.kz,(777) 277-4275,874843,Lagboz Extension,Bedcaun,NV,14102,$2160.06,WHITE
133,Edwin Wood,tisekep@waf.cz,(979) 794-3889,699068,Ulbom Park,Pirrivu,WI,52818,$1541.55,GREEN
134,Flora Reid,gebekuvo@aw.ao,(522) 773-3896,649763,Vefeh Road,Kianivo,VA,47016,$342.51,BLUE
135,Gavin Martin,bef@lozfej.gh,(421) 801-3609,597261,Ivagip Manor,Carunec,KS,50308,$3078.41,YELLOW
136,Lucy Jefferson,pohijib@bovum.co,(386) 667-3462,803227,Vizub Pike,Hoadfe,CO,63382,$7737.20,WHITE
137,Ernest Hall,nabil@radikak.na,(632) 290-9907,399113,Rivo Place,Conihed,DC,96592,$8428.11,WHITE
138,Daisy Jenkins,fomdav@suhina.bj,(930) 340-1465,668656,Surso Path,Zosivlon,PA,14591,$7414.67,BLUE
139,Janie Chapman,tocat@fidcug.to,(360) 207-6179,101809,Nowje Point,Juwnupbil,WI,18745,$7169.67,RED
140,Bertha Christensen,til@zaubcev.mg,(277) 920-8116,551312,Cukuc Key,Givlazib,MT,23199,$2289.49,WHITE
141,Maude Hernandez,agidoc@roh.na,(858) 430-4037,931492,Zutfor Point,Ruvashe,MS,87673,$1938.82,RED
142,Jorge Stevenson,zedehka@pekuze.cy,(372) 686-5068,049647,Kavvul Road,Renhosgu,OR,07458,$1288.01,WHITE
143,Bettie Robbins,ruwja@zi.sz,(319) 972-5223,683611,Aluci Way,Batidihe,VT,29912,$7717.55,YELLOW
144,Cynthia Banks,zatiwciz@savrumis.mc,(327) 529-5458,094503,Pojza Court,Giconol,UT,03551,$777.74,WHITE
145,Cole Elliott,ijpam@pa.edu,(687) 215-5905,643029,Mimoz Pass,Inojuce,KY,63824,$9158.97,BLUE
146,Beatrice Bryan,vebluko@vadloaja.me,(549) 644-7770,400130,Talju Trail,Emudorha,CO,83509,$2478.82,GREEN
147,Christine Hunter,gol@ewvonidu.us,(812) 358-5440,048626,Hekuzo View,Midjezic,SD,72952,$483.91,RED
148,Herbert Bridges,jakdadle@vazo.ec,(549) 655-2838,730545,Foko Glen,Bevbabaw,WI,86743,$3206.14,RED
149,Brent Colon,jo@gi.sn,(436) 360-7173,777979,Tugwun Trail,Ruosdof,WI,93065,$8634.40,YELLOW
150,Bernard Peterson,dute@ho.iq,(676) 931-3292,819153,Gocac Court,Ariebli,MA,25484,$6702.47,YELLOW
151,Mason Garrett,ukorehow@afju.tc,(677) 302-8202,536451,Vuhka Extension,Wubamji,WY,69586,$4493.24,YELLOW
152,Minerva Kennedy,con@ror.so,(287) 321-2297,258749,Jaczu Street,Bahpamas,NJ,03241,$471.24,YELLOW
153,Dominic Hansen,ne@od.sl,(257) 258-9418,851190,Venzu Key,Fecdentut,RI,53691,$3671.24,WHITE
154,Carrie Steele,vamum@ra.bg,(986) 926-6620,769031,Pubjab Terrace,Rokepo,CT,57679,$3002.26,GREEN
155,Ola Carter,geb@nur.bt,(420) 625-6881,492081,Suhpos Turnpike,Huksoisi,VT,92500,$7134.62,GREEN
156,Matilda Lindsey,liguzit@ribad.fi,(936) 771-1883,471141,Fimku Center,Rumadu,ME,89849,$6506.04,GREEN
157,Francis Lindsey,izede@ga.bd,(403) 756-9755,842744,Penjo Street,Buohebe,WI,28885,$6664.06,BLUE
158,Jennie May,nafev@fehimed.sa,(655) 541-7512,632251,Cipaw Road,Igjelmi,IL,58390,$1901.47,WHITE
159,Rena Pearson,sogdej@rizka.mx,(758) 753-4252,686142,Falte Park,Dineghi,WA,50149,$3155.75,RED
160,Belle Medina,aj@ufe.cg,(675) 204-3112,314602,Zori Mill,Pezepebud,MI,01713,$6282.86,YELLOW
161,Lizzie Zimmerman,jilufo@kutfunu.ph,(783) 351-3662,168600,Vewi Pass,Mowduodi,NC,31464,$2615.64,RED
162,Lora Sullivan,lehsovki@dad.gov,(516) 423-1069,149676,Mazli Avenue,Pacgaoc,ME,68398,$7595.20,RED
163,Ralph McCoy,ehhatki@hutov.mc,(906) 959-2119,285152,Zaepa Grove,Rikledu,MI,70064,$6872.98,WHITE
164,Marguerite Strickland,govat@anbot.ir,(525) 885-7472,302644,Pafa Lane,Ratuge,NV,43061,$3439.38,GREEN
165,Lydia Cortez,radtebvik@ra.sk,(708) 424-3332,580855,Lori Terrace,Hurona,WV,27189,$2892.35,RED
166,Eunice Walton,kafju@fo.org,(920) 245-9601,307705,Himpir Drive,Igcifkuw,WY,65932,$1700.53,YELLOW
167,Louise Leonard,palofoto@mulawal.com,(749) 268-1848,891467,Mihel Trail,Dauhmin,CA,68357,$9504.36,WHITE
168,Josephine Francis,mohap@he.pw,(756) 222-9396,667385,Biwjaw Circle,Iwacupa,NH,48648,$4032.74,GREEN
169,Susan Norman,adu@imowil.st,(376) 223-4094,497033,Bane Extension,Pivlibudo,MT,24576,$4415.37,RED
170,Mittie Collier,bebozo@zu.id,(721) 253-3791,826312,Lolca Way,Mobedmi,AL,02302,$7832.54,YELLOW
171,Grace Wong,am@poguwmes.bg,(800) 257-9701,976716,Gahuju Square,Havofce,NC,89528,$262.58,GREEN
172,Elmer Ortega,mo@ituno.nz,(922) 740-6339,866875,Vecpak Parkway,Rugules,NE,90246,$2136.74,RED
173,Phoebe Burton,vot@fe.td,(415) 892-5665,755470,Goluc Extension,Usokoni,WI,20432,$4352.96,RED
174,Carlos Bridges,vodnon@biroduh.re,(528) 905-7644,316701,Newge Way,Vacegeh,TX,75104,$759.33,BLUE
175,Delia White,ofiziljuc@go.ck,(323) 626-4006,316923,Besam Court,Peevvel,NV,87645,$6144.61,RED
176,Katherine Williamson,haghuz@siske.nr,(340) 446-8271,854472,Himid Highway,Uwrosgo,NV,21062,$4411.90,YELLOW
177,Beatrice Murray,reumesiv@arkef.mh,(234) 660-8077,462646,Vovmuf Avenue,Dahinit,FL,74494,$5613.22,YELLOW
178,Lewis McDonald,lerijha@uvooji.bm,(779) 961-7941,074542,Fodor Avenue,Gebeok,WY,89142,$9656.81,YELLOW
179,Johanna Reeves,neuriri@vigonbis.am,(478) 785-7213,617889,Ugfud Avenue,Asiazuca,NJ,42255,$7742.38,RED
180,Peter Patton,muvponaz@huddazuh.ve,(718) 606-5711,836004,Vizsok Pike,Tamkijup,WA,73895,$7626.78,RED
181,Mitchell McCormick,bec@gep.cg,(674) 724-3090,856473,Pipza Point,Wigfekedi,ID,31562,$5119.24,WHITE
182,Alfred Griffin,fenib@cetauwe.ie,(928) 929-7443,033680,Hikin Heights,Duvafeb,WA,72255,$762.23,RED
183,Nannie Day,gofgid@ro.tw,(768) 506-6575,679310,Ihuweb Park,Puwivcob,NM,80171,$8725.37,YELLOW
184,Ida Jacobs,zat@niico.gs,(611) 703-6306,401371,Wormam Path,Cimcovum,MI,50710,$3773.34,WHITE
185,Keith Daniels,kazise@bogcel.mz,(861) 360-8123,432513,Memgi View,Dajinha,WY,67170,$9190.11,RED
186,Darrell Gibbs,bilbiz@kazif.cw,(643) 209-7044,110364,Ajani Trail,Jelzujve,TN,60200,$4265.52,RED
187,Susan Mills,vo@ka.fi,(369) 755-4624,523986,Celri Turnpike,Pemewo,MS,58413,$5433.64,YELLOW
188,Sylvia Ballard,daffuvaw@ijcolune.kw,(734) 345-1975,509219,Migow Key,Sasowale,NY,65150,$2461.85,WHITE
189,Addie Woods,furatwuc@tekek.vg,(679) 763-7263,521935,Izaza Way,Razazi,LA,59576,$5361.63,BLUE
190,Winnie Stevenson,uva@woahe.no,(344) 676-3642,155208,Hoce Parkway,Kunejoap,DE,15902,$1051.55,BLUE
191,Warren Vasquez,nohnoj@zu.ba,(655) 795-9654,228858,Ehaowa Place,Todoknij,CO,40504,$7532.44,GREEN
192,Nathan Taylor,jiuvimo@enafeh.lr,(304) 362-6836,538865,Ujnud Manor,Cufitse,MT,49121,$2608.50,GREEN
193,Betty Roberson,kadbivagu@gir.sg,(222) 906-5302,295924,Idoag Avenue,Ciiloze,NV,71746,$4347.66,RED
194,Rose Austin,rorkumi@gulazco.nr,(917) 947-1883,390078,Doge Ridge,Ifiruklo,ID,09468,$9987.38,YELLOW
195,Dale Wilkins,jigo@gop.mh,(618) 638-1382,390261,Jommof Ridge,Mennabiw,OR,50796,$2944.62,WHITE
196,Shawn Long,vew@heewew.eh,(637) 574-6268,055974,Gaszol Parkway,Takimwub,IA,60666,$1317.19,WHITE
197,Glen Ballard,dosmufuho@dokac.wf,(206) 356-4773,462906,Ujuc Point,Divatzos,VA,77115,$2858.41,BLUE
198,Steven Sutton,ka@wove.za,(233) 603-7211,073179,Pocid Path,Emtoes,RI,13363,$234.93,YELLOW
199,Martin Munoz,ra@lupur.sg,(678) 945-5039,562456,Ecejoj Extension,Uveluwhus,WA,61496,$9739.33,RED
200,Garrett Lucas,jonu@ji.cm,(649) 829-5705,998725,Kolap View,Ecemaspez,MN,15063,$9278.95,RED
201,Myrtle Sherman,nehbuddu@jofdi.tj,(332) 474-4056,895088,Orlu Mill,Ruwtirgo,TX,75399,$9448.86,RED
202,Mollie Schmidt,abi@za.sa,(286) 640-2529,592979,Moon Loop,Comamom,OH,80777,$1367.70,WHITE
203,Joe Lloyd,zomwov@komaj.vu,(749) 648-5331,007138,Mavej Way,Apzeldur,GA,38910,$6202.40,BLUE
204,Mina Barnes,wibat@obileze.it,(244) 731-7275,754241,Luke Glen,Tusesuod,OK,76515,$6495.44,RED
205,Herman Holland,ibedidup@icwe.fj,(965) 995-2739,059350,Rihgir Drive,Fimilfev,RI,39759,$5194.48,BLUE
206,Grace Robbins,vide@lesvi.dj,(532) 328-9881,771299,Feme Turnpike,Zifovolid,MN,59651,$4043.91,RED
207,Cynthia Hanson,ekozenze@sibibejub.eu,(637) 929-6539,261133,Gownar Drive,Kofospom,ME,74828,$7071.86,YELLOW
208,Vera Bryan,peatka@ak.gi,(522) 831-2865,903481,Lisona Park,Cuavic,SD,20884,$6981.46,GREEN
209,Victor Swanson,puldatom@ohekura.li,(219) 310-4444,538555,Ladro Mill,Akdiwzi,MI,39766,$9536.02,WHITE
210,Bryan Stevenson,zi@danabcu.me,(612) 667-4518,758717,Fuwu Extension,Najlosji,MS,28935,$3369.98,GREEN
211,Peter Wagner,zelubmo@nu.om,(961) 554-3840,362984,Latze Drive,Poefli,SD,38133,$2932.93,YELLOW
212,Bobby Thornton,na@zusim.mu,(815) 622-9301,185465,Imamo Key,Fodadte,HI,12695,$5552.48,BLUE
213,Georgia Nunez,mep@vulzut.fk,(237) 260-7759,517772,Zajso Junction,Erofine,AR,18847,$8852.06,YELLOW
214,Eva Elliott,taf@rububne.cn,(426) 201-1075,245917,Niklot Key,Vetolus,MA,25611,$6561.81,WHITE
215,Millie Steele,har@bidohdib.ly,(887) 757-4900,436681,Ijufe Place,Witegho,WA,24471,$6275.70,RED
216,Maude Wade,ebbagmoc@acra.md,(762) 954-7921,002432,Kusil Turnpike,Helgofkot,CT,17754,$1582.64,YELLOW
217,Isabella Shelton,rohjor@kah.mz,(702) 722-8263,776803,Owugiv Plaza,Katgapzel,PA,22715,$5980.68,RED
218,Albert Waters,og@otgew.pk,(754) 380-2377,401242,Kimwej Parkway,Annegif,MO,94790,$1976.79,BLUE
219,Eula Flowers,dib@bese.bf,(235) 709-7809,602643,Dauwe Parkway,Maaleti,MT,00227,$2145.51,YELLOW
220,Aaron Miles,ukcowlez@mibe.fr,(218) 794-4163,380882,Amko Manor,Ceokiced,NY,47347,$119.07,YELLOW
221,Martin Barrett,ledbuvi@nav.ke,(935) 921-7256,471759,Bawiz Heights,Aromaef,GA,44661,$7464.23,WHITE
222,Hallie Swanson,ze@pafuk.ro,(974) 830-7340,429186,Ceeru Plaza,Arkilroh,ND,66947,$7989.88,YELLOW
223,Alvin Sanchez,iti@go.ng,(845) 696-2029,905569,Juvfal Street,Gowucma,OH,48363,$3248.93,BLUE
224,Nelle Hanson,uble@ubu.tk,(945) 712-6022,966909,Sumsaz Park,Bafenof,FL,77170,$2342.76,GREEN
225,Edgar Cross,pimirer@imamoshih.tf,(812) 806-3773,199421,Lonag Way,Natsivja,PA,26081,$7919.57,YELLOW
226,Dennis Hines,uwo@wewut.ni,(862) 710-8332,218739,Adula Glen,Ozifaosi,ME,06726,$7120.54,RED
227,Eunice Roberson,mafculof@zufrono.pg,(803) 922-3094,745050,Zukbit Drive,Avciwu,AK,53425,$4033.54,WHITE
228,Gene Elliott,gicik@fi.fm,(800) 682-9043,506417,Oloada Junction,Riibotar,WY,04629,$9033.28,BLUE
229,Mabel Dennis,rosdoweb@waf.ac,(384) 867-2789,201502,Niozo Place,Robtembe,HI,73125,$2478.23,YELLOW
230,Carlos Williamson,ro@owela.fk,(874) 318-6122,260685,Zazfuh Drive,Owbeplip,VA,00933,$3833.08,WHITE
231,Edwin Dawson,ziwpak@he.bb,(949) 213-7382,410759,Ufifa Manor,Tozuof,OR,86302,$7281.37,WHITE
232,Jimmy Howard,eperozti@hukuz.ms,(364) 986-3708,216437,Vogef Terrace,Vufewi,NM,24085,$7617.03,BLUE
233,Ollie Hale,rogzok@popata.kh,(406) 577-4598,969865,Veive Drive,Ulebizam,AL,85050,$3031.88,BLUE
234,Jerome King,tubaf@up.kz,(751) 903-9564,552432,Imvib Drive,Kenavfa,OH,89956,$2767.86,GREEN
235,Henry Gray,num@erutiliti.lc,(948) 656-7359,045559,Omero Glen,Fekesiko,WV,67527,$7023.14,RED
236,Hester Munoz,nilew@opo.pn,(438) 564-8887,250032,Sizjoc Grove,Ufetezok,CA,72124,$6588.37,BLUE
237,Florence Hoffman,cudne@noawearu.fr,(771) 865-6137,969947,Kocrob Road,Tunpisuv,WV,96168,$1980.91,GREEN
238,Chad Jordan,belicjid@houvko.rw,(543) 342-7072,920942,Zogru Square,Tauceig,ND,52375,$3758.72,WHITE
239,Estelle Dixon,ob@pud.cd,(914) 904-1501,589830,Kupco Lane,Jibijaz,GA,01809,$3278.02,GREEN
240,Mattie Edwards,ceov@celi.cz,(444) 420-5034,186543,Nunhot Heights,Dahdeggur,OK,82811,$23.15,BLUE
241,Eugenia Ruiz,reb@diglo.sn,(474) 368-7587,480906,Vone Mill,Ifufemi,TX,75122,$9077.52,GREEN
242,Ray Swanson,keti@ju.vg,(379) 235-5185,136445,Pirud Parkway,Wedrodso,IL,75194,$6513.37,BLUE
243,Claudia Norman,puvomul@ifpo.ua,(271) 725-1141,914564,Jeri Key,Igganec,NE,64405,$5906.42,WHITE
244,Roy Allen,muphauwo@iv.zm,(679) 626-9544,150173,Ubone Center,Umhupec,IA,28904,$9365.89,BLUE
245,Andre Yates,as@fem.li,(774) 812-9608,918137,Edgon Street,Vaffauh,AK,35106,$7715.56,YELLOW
246,Seth Barnes,itwor@re.sx,(911) 549-3115,579182,Sozufu Court,Rimiplek,WA,23685,$3612.34,RED
247,Stanley Townsend,zurub@fetom.cm,(470) 712-2154,546007,Lomu Highway,Viczusihe,MS,76034,$9092.75,YELLOW
248,Adrian McCoy,hi@rof.bi,(754) 913-9663,356892,Ucsa Grove,Huegumi,VA,44199,$3323.23,GREEN
249,Timothy Pierce,me@kowju.mr,(734) 866-4355,777714,Radu Park,Tuhaguci,TN,96158,$6499.12,BLUE
250,George Gonzalez,id@arfepaw.edu,(241) 888-7122,237643,Navwi Key,Vudobdoj,MT,32048,$1760.60,GREEN
251,Norman Torres,cefluk@etenezme.kr,(927) 231-9296,192351,Amuniw Drive,Uroczu,WI,90158,$8630.39,BLUE
252,Victoria Massey,wunnig@dama.is,(479) 303-5517,097835,Racuc Avenue,Wamevfug,CT,04167,$4211.27,RED
253,Katherine Fisher,zadma@fu.lk,(312) 357-4242,736983,Tebsa Heights,Opiutazu,NV,47911,$6488.91,YELLOW
254,Alice Fowler,rugosino@le.tv,(510) 382-5925,596694,Huslu Road,Leemba,NJ,75141,$2166.27,WHITE
255,Corey Figueroa,ivuuwitu@pu.be,(546) 771-9212,563161,Mimito Trail,Jagaafu,WY,55536,$3042.07,YELLOW
256,Philip Graham,fowda@at.gh,(679) 551-6095,678061,Elonit Manor,Jekfine,ND,06976,$9581.79,GREEN
257,Lida Bridges,ka@mavta.cf,(253) 749-7067,897778,Tambes Square,Esejavok,ND,38341,$487.49,YELLOW
258,Corey Bradley,edaroras@sabe.nu,(624) 200-1917,870675,Dofup Junction,Mirukpaw,MO,03272,$5220.99,RED
259,Frank Burton,leh@loczemu.bm,(500) 857-9195,178375,Ricji Junction,Evuthad,NM,12519,$7391.27,WHITE
260,Maurice Little,kesapir@adnep.ir,(902) 867-3777,389235,Tira Pike,Folvuuje,NC,79478,$9786.34,GREEN
261,Gene Dennis,bij@gas.pt,(980) 851-8938,316462,Helzim Pike,Rajufu,CT,29238,$6677.21,GREEN
262,Rosalie Diaz,ko@so.ps,(561) 717-9689,090133,Wewro Junction,Aribepab,MD,09975,$6957.69,BLUE
263,Edwin Richardson,ozoekiiw@gapsu.cr,(850) 478-4707,896822,Nagof Terrace,Igacipneb,RI,61232,$231.08,YELLOW
264,Virgie Ortega,pisnas@sata.pa,(851) 416-1169,199079,Pomca Pass,Vilonul,NJ,83679,$6866.89,YELLOW
265,Nelle Daniels,hucfuzi@idta.bj,(911) 960-2423,350448,Sesim Trail,Movhini,IN,64238,$6301.59,GREEN
266,Carl Perry,morek@tuc.lv,(518) 793-8104,508815,Lenos Manor,Koesatol,CT,23706,$3641.12,GREEN
267,Brent Berry,zijof@tetlame.cg,(829) 939-1811,312812,Negseh Path,Akizulaj,IA,38138,$5701.86,BLUE
268,Trevor Herrera,epolu@zopar.tg,(418) 203-5726,834330,Budoz Extension,Waicku,MA,12580,$9214.01,YELLOW
269,Jane Neal,bu@giri.ye,(766) 955-6687,959512,Panip Glen,Nawbocel,NV,53140,$8166.83,RED
270,Donald Peters,cu@fonpakefi.as,(781) 827-6923,285625,Mugif Drive,Limbirpe,NH,59789,$8390.98,WHITE
271,Louis Holmes,nobuzte@puow.nc,(389) 321-7994,063994,Huwrer Place,Zagdezul,NJ,63232,$1086.83,GREEN
272,Sally Goodman,gol@uk.cm,(664) 829-5449,335470,Mepa Pike,Bazejav,MD,27014,$4282.12,YELLOW
273,Bertha Lane,winoso@masejadoc.hk,(737) 542-8830,870488,Cibgub Boulevard,Kifila,AZ,71484,$6153.53,RED
274,Phoebe Myers,seh@guv.tr,(457) 205-4307,860338,Dema Terrace,Fuzjina,GA,18622,$667.90,RED
275,Darrell Day,hujfuk@genjur.to,(454) 599-8023,594789,Tofoj River,Afolala,MI,14368,$5610.05,GREEN
276,Myra Austin,piidiod@voov.kw,(527) 504-4764,481815,Olbup Plaza,Doesda,FL,50414,$728.54,WHITE
277,Philip Silva,maj@fu.an,(237) 959-5873,811342,Wardem Circle,Celnelwir,GA,54735,$1728.03,YELLOW
278,Lawrence Underwood,zajepdem@uw.cz,(906) 419-1664,961405,Dagnib Boulevard,Sikurafun,VA,84255,$9560.83,GREEN
279,Leah Wade,wosakoc@rijib.kh,(229) 811-4774,531715,Ijaej Path,Vavtujpa,WV,61503,$4324.83,BLUE
280,Randall Hansen,goz@omba.ag,(665) 626-7036,146542,Jubeb Path,Nibfilut,DE,29161,$595.44,GREEN
281,Chris Mendez,reptu@cozzajil.lb,(339) 560-4018,476440,Baflav Drive,Ashasop,WA,31764,$5413.24,BLUE
282,Matthew Byrd,diznadwi@new.kz,(432) 709-5611,950622,Zorim Heights,Apemudu,SC,48571,$7404.64,WHITE
283,Alejandro Harper,wage@fe.de,(351) 252-4855,228238,Zocona Boulevard,Palfugha,CA,45024,$4376.39,YELLOW
284,Anthony Salazar,gedzimen@rosbiis.za,(459) 968-3787,542319,Umoomu Park,Hucazjos,NE,59687,$1595.68,YELLOW
285,Blanche Smith,lowmune@fobgiruz.mk,(603) 273-8488,885142,Weeb Pike,Nikofbep,MS,84835,$4238.21,WHITE
286,Marvin Sandoval,vona@hebuvid.na,(352) 718-3237,574048,Pogji Court,Zinupga,MO,58294,$3956.39,GREEN
287,Ryan Snyder,gupcuk@dogta.mn,(716) 612-4329,822198,Lunuc Pike,Uwrake,FL,70981,$7513.46,GREEN
288,Loretta Perry,kulel@zi.es,(888) 322-2792,010266,Juvbi Lane,Upadehe,MI,55536,$1170.58,WHITE
289,Eunice Turner,bucpip@aniwubu.pe,(956) 506-6427,794571,Lilevu Mill,Egmude,NM,66901,$2057.48,RED
290,Leona Harrington,alwawpuz@lavechin.tt,(207) 561-4515,805096,Rohos View,Mosvenfud,TX,08755,$6464.07,BLUE
291,Ralph Snyder,keswopiv@ves.lr,(772) 214-6431,349206,Cupgim Pass,Nurusatu,IA,28048,$1743.56,YELLOW
292,Rosie Carpenter,vapvatle@isoji.vn,(503) 932-8578,844489,Rolduv Turnpike,Deufufa,WI,93621,$5983.51,YELLOW
293,Jack Hayes,zuwhohdew@ejiepaso.gn,(557) 761-2673,302429,Homtu Turnpike,Akcowna,OR,43547,$8922.91,WHITE
294,Leo Gordon,mad@zonlewbu.ug,(350) 919-8266,506947,Ajici View,Pujpuulu,WA,05333,$7585.09,BLUE
295,Lena Swanson,jun@rervojo.et,(262) 817-9629,230187,Ziwhu Ridge,Ebbehba,OH,75768,$5419.23,RED
296,Bertie Silva,eruci@onfif.at,(519) 534-6561,060590,Umlun Point,Setkeguk,NJ,79136,$739.53,YELLOW
297,Rodney Perez,koh@jamoko.li,(919) 511-8236,555557,Hobgi Junction,Sopneoba,GA,00624,$360.04,YELLOW
298,Calvin Wood,setihub@voves.pg,(339) 723-2553,684135,Voliw Street,Luczuhuve,CA,62817,$1513.98,WHITE
299,Adele Tucker,ko@fuuraju.sy,(411) 564-3523,647029,Enpa Grove,Roevsa,VT,70308,$3226.20,WHITE
300,Marie Flores,sedop@apve.cy,(534) 956-6284,811455,Urgi Path,Wuvowu,OH,90625,$113.90,BLUE
301,Cora Mendez,ufadu@es.nu,(859) 976-4015,639370,Tatcov Glen,Suezieg,WA,60774,$7564.87,WHITE
302,Marcus Kim,fu@imilog.ad,(517) 457-7024,817004,Asarul Path,Eltajro,RI,32565,$9260.79,RED
303,Curtis Edwards,timta@fetreh.th,(476) 306-5287,733916,Jecib Circle,Tuzado,VT,23488,$9227.49,RED
304,Larry Swanson,morivaod@riv.bd,(381) 306-1209,800228,Boefo Center,Dicjoopa,WA,33132,$8587.19,WHITE
305,Trevor Sharp,husecepef@semoike.ro,(641) 555-1102,148054,Punko Manor,Melohin,FL,96639,$2126.78,GREEN
306,Cecelia Clayton,anisu@ta.pt,(704) 540-9820,823889,Ziknic Boulevard,Kefarif,MD,22960,$9310.30,WHITE
307,Stanley Reed,ev@gusigtaw.org,(817) 486-7082,363768,Elioz Extension,Micporhe,DE,50353,$3025.49,GREEN
308,Angel Owen,seiwmos@idivugam.pa,(456) 544-2743,529409,Gozwiw Mill,Fobiij,NV,97086,$9173.45,WHITE
309,Matilda Cohen,fi@fo.sm,(658) 767-9406,557034,Fuel Ridge,Aroderfij,NV,42117,$3847.08,WHITE
310,Edna Harper,mikro@cawil.sz,(754) 764-7152,128634,Ocuegu Highway,Iwoevufiv,AZ,09006,$2210.67,YELLOW
311,Arthur Jefferson,dubume@mugut.bs,(518) 730-1118,011303,Jakun Center,Ucehokkuz,MI,85539,$5320.78,BLUE
312,Terry Lloyd,waw@pamzulvak.la,(432) 951-9564,719619,Vujis Road,Kurtuci,KS,04660,$8277.78,BLUE
313,Julia Henry,po@okame.mw,(269) 366-8858,236568,Woti Grove,Uwfurcaz,LA,00922,$4966.18,YELLOW
314,Dora Obrien,uribulo@vac.bz,(355) 408-2806,576045,Jomaw Parkway,Pitbape,PA,65657,$1065.96,BLUE
315,Scott Mathis,rowibel@ma.mv,(842) 583-8258,526137,Birso Point,Pewenku,MT,14483,$5543.64,YELLOW
316,Richard Hansen,ve@bepdeiwe.aq,(412) 577-4952,840478,Afamu Point,Ojaigra,SD,02866,$7877.89,YELLOW
317,Rachel Christensen,zoso@ijraz.io,(740) 519-1753,080537,Luvbug Extension,Gujief,MT,94318,$1601.58,RED
318,Floyd McCoy,kuoge@nuzunwu.np,(939) 331-8435,859310,Mirog Manor,Bejazoz,NH,26238,$3335.00,WHITE
319,Gilbert Briggs,lanakih@eb.ph,(453) 530-4405,691833,Kipo Key,Semcodom,DC,00144,$8921.97,BLUE
320,Rachel Swanson,fimikajar@ohuunu.tw,(726) 658-6588,681958,Gietu Park,Nuradaku,MS,03991,$6943.81,BLUE
321,Dollie Larson,eruwu@sa.cn,(546) 903-3192,462734,Vaco Mill,Curemve,VA,75178,$8059.82,GREEN
322,Mollie Diaz,cew@bos.sc,(231) 302-9078,234064,Damo Square,Vifamod,IN,34181,$1777.92,GREEN
323,Madge Pierce,diva@juv.hn,(209) 638-5965,243407,Otoce Road,Tilmosu,OR,09165,$3528.36,WHITE
324,Mathilda Berry,nu@sibawpi.gs,(913) 997-4772,767491,Uziwil Boulevard,Pivhuzu,MS,12718,$843.17,WHITE
325,Rosetta Bennett,puhusoj@pibaota.er,(455) 856-3720,288061,Juzoc Point,Cufajdag,NH,30330,$690.77,BLUE
326,Maude McGuire,ju@luh.mk,(625) 799-2085,499369,Otaaku Glen,Pivzutes,IA,29663,$6778.52,BLUE
327,Carolyn Vaughn,dudumun@vuwuwapa.tj,(929) 961-7280,411371,Emcom Highway,Wiwkuval,OH,73617,$4389.40,GREEN
328,Sue Hernandez,ra@cowmic.fi,(732) 848-8791,902753,Wuvgoz View,Gawesis,NC,88238,$9151.43,GREEN
329,Dale Goodwin,pitujuja@belwaet.lb,(575) 760-9459,194109,Ludi Manor,Uwwire,ND,70936,$7513.66,GREEN
330,Christopher Rogers,picpod@neoj.nz,(881) 215-2466,962183,Mehofu Highway,Obototeg,MN,08651,$6612.18,RED
331,Dylan Pratt,gibvuace@vikzetul.pr,(534) 783-8818,318646,Mewti Glen,Kergako,KY,70755,$2145.89,GREEN
332,Johanna Cook,rij@nuletfef.ga,(418) 428-5703,739857,Vekdel Court,Riocuvu,NE,86213,$3678.27,GREEN
333,Bruce Brock,zo@nar.bm,(549) 249-8588,630009,Rejo Road,Cagpofav,IL,03427,$6782.98,WHITE
334,Genevieve Quinn,sa@fuweri.dz,(311) 788-1112,788725,Upohu Turnpike,Ahogoewe,WI,70467,$5078.92,WHITE
335,Donald Taylor,fauva@usugelzah.gd,(630) 471-2092,735971,Agmu Way,Begewwo,MT,27444,$467.86,WHITE
336,Henry Rivera,hizfudoj@suuhuvo.cy,(574) 668-4806,252246,Hara Trail,Zuokogig,FL,61299,$2394.55,GREEN
337,Ivan Logan,bev@cufal.cc,(512) 930-6129,417393,Ihazi Glen,Tufduju,ND,09441,$8617.13,GREEN
338,Chase Bradley,nabe@pe.mm,(426) 500-7676,815965,Fiuw Pike,Lecbofa,OR,39704,$4174.45,YELLOW
339,Alejandro Figueroa,maizeuji@dig.bm,(989) 927-1426,094961,Nisub Park,Ulmecwab,SD,43317,$2509.40,BLUE
340,Eliza Barnes,tonom@egzok.kn,(962) 604-7877,611727,Acubu View,Ilekekoc,FL,15619,$7322.47,WHITE
341,Mattie Ray,reheg@agoce.pf,(886) 506-9226,995408,Vojwus Point,Vutise,MD,20223,$8325.35,RED
342,Verna Rodriguez,zu@morapsaj.lv,(429) 486-5401,358139,Juze Court,Jigajusul,KS,54078,$1013.51,YELLOW
343,Garrett Park,zoci@avipelluz.tp,(562) 768-3703,464393,Rewu Heights,Lubologo,MD,23688,$9895.42,YELLOW
344,Lottie Saunders,ufkob@larzad.cf,(535) 871-1199,438625,Kiswep Road,Zeatietu,AR,24036,$8747.00,RED
345,Calvin Lamb,ropa@wuhbiwive.cc,(342) 813-8024,393319,Calba View,Haogeid,CT,00298,$7779.51,GREEN
346,Jordan McGee,ivaus@vojavso.gn,(865) 545-3767,930293,Nucnu View,Munephe,ND,00482,$1367.24,GREEN
347,Abbie Bailey,tazob@hoif.cc,(515) 862-4581,296830,Waffu Lane,Ikalafim,OH,09530,$3087.64,YELLOW
348,Corey Ward,zi@ifuridi.ie,(561) 812-8605,331393,Mawli Terrace,Saboude,MT,62826,$9741.42,WHITE
349,Francisco Butler,kacta@din.ag,(840) 872-1148,982092,Tilo Highway,Zugewufuz,AR,61175,$1935.41,RED
350,Dora Cooper,tuvetto@duda.vn,(367) 927-2900,938325,Evli Pass,Vauhku,MA,91434,$69.22,BLUE
351,Elizabeth King,botmeano@ubipisza.so,(630) 251-4260,094215,Tatjid Ridge,Tiviola,MI,30706,$8428.99,GREEN
352,Hallie Sherman,to@sainlup.mm,(516) 957-4589,171251,Jeuz Pass,Ugjimpa,MA,88287,$8181.48,GREEN
353,Jason Lyons,patevel@nudhicviz.et,(811) 634-1122,897773,Hukjit Trail,Rebawzuf,WA,61430,$6321.63,YELLOW
354,Ian Moreno,vijnogavo@cac.cg,(531) 278-1138,869124,Vukah Highway,Govefguz,NM,22038,$9705.53,BLUE
355,Roxie Montgomery,ziwafoj@co.eu,(204) 560-4281,465928,Mujpet Way,Rewial,NE,65709,$3870.11,WHITE
356,Albert Davis,odupada@gecewop.gu,(305) 645-9442,694676,Sajfin Heights,Cuomwej,MN,23737,$7383.12,GREEN
357,Jennie Estrada,tubvor@peutkub.pg,(971) 230-4232,268826,Molkif Pass,Paweklud,TX,91843,$51.74,GREEN
358,Landon Price,ofa@vaeri.nc,(311) 208-3947,639839,Panuwa Boulevard,Vadluep,MI,86598,$4212.73,WHITE
359,Adele Ramirez,nelke@colucu.net,(535) 294-7295,782172,Ecise Circle,Piibedel,WA,90639,$718.23,YELLOW
360,Raymond Daniels,peknif@hos.zw,(921) 243-5726,971770,Tozgif Center,Guhcakme,SD,40358,$6693.63,YELLOW
361,Manuel Burton,lug@loarera.je,(983) 549-1857,404786,Uvuuvi Park,Ofuremip,RI,18370,$3743.90,RED
362,Richard Myers,pav@zo.ma,(301) 553-6352,438326,Buvked Extension,Motnumilo,IA,79269,$868.15,GREEN
363,Eric Cohen,futo@ebfi.ro,(234) 854-2923,167755,Fiake Glen,Hesvajcar,MT,85477,$8989.58,BLUE
364,Jane Benson,enu@hauge.to,(687) 729-7355,524063,Ladaf Heights,Wunasja,NE,94066,$1363.46,BLUE
365,Alice Gross,huoho@rawihu.ws,(464) 657-1785,488844,Meko River,Kusaeno,MO,01511,$740.65,RED
366,Leroy Green,wifgel@vugcanca.sz,(585) 898-2650,880355,Hise Court,Hegnaeko,CO,66573,$3541.56,WHITE
367,Raymond Flowers,habevjaj@fos.io,(817) 999-2201,696072,Gavola Terrace,Ihakordeh,WA,54874,$3658.25,BLUE
368,Norman Rose,wopewa@rate.io,(944) 246-8054,366012,Vunup Street,Bifaor,NV,03631,$6262.03,GREEN
369,Ora Todd,to@aju.edu,(723) 605-3751,894302,Zemuk Place,Osiripu,WA,77145,$8203.13,WHITE
370,Jane Marsh,akisic@beumuzu.sk,(502) 434-7347,755014,Ruhsi Pike,Caojmu,ID,44814,$9180.82,WHITE
371,Sean Wolfe,peilo@akpo.km,(442) 695-6263,152315,Vucas Extension,Awuzihna,TN,72386,$440.33,RED
372,Ronald Fitzgerald,bulernep@ot.ac,(729) 845-5527,270859,Legwon Heights,Giblidgir,GA,78995,$4652.64,GREEN
373,Leila Ramsey,pap@jarij.ng,(262) 220-1151,316289,Iwediv Boulevard,Ubohve,MA,01865,$3620.93,GREEN
374,Nannie Garza,dur@kebhu.gl,(643) 205-1894,299696,Wuge Court,Demwugto,IA,82436,$3331.35,YELLOW
375,Louis Patterson,zoldet@nujzaship.by,(460) 955-4287,883104,Hefa River,Fimmakov,IL,34547,$5385.23,YELLOW
376,Josephine Wise,vijes@eheca.bb,(215) 249-6798,064630,Adka Way,Asrudmud,AL,39716,$7791.04,WHITE
377,Kate Fisher,ec@hi.ke,(225) 845-6532,399832,Nemo Road,Pevatet,FL,47541,$8244.31,RED
378,Teresa Wolfe,isirbic@bipeza.kz,(609) 789-9988,642242,Gilgaj Court,Wehcimel,OK,80313,$6848.36,WHITE
379,Maria Reese,lufza@wonop.mq,(222) 674-4353,005181,Wuul Turnpike,Vemejej,MA,04960,$7095.42,WHITE
380,William Larson,pu@puc.at,(651) 795-6077,581190,Detuba Avenue,Ratewtiw,NY,78421,$381.64,BLUE
381,Linnie Wheeler,roj@hevu.tt,(872) 431-4502,454926,Vuebo Street,Jijutgik,HI,29583,$8557.86,WHITE
382,Bill Wong,geddi@juveg.bm,(242) 519-3415,237884,Ifhi Trail,Pufluune,MS,54081,$9811.74,YELLOW
383,Josephine Willis,hujner@irepu.ca,(336) 622-1148,635428,Janucu Avenue,Pacgebwuz,WV,40229,$7393.62,BLUE
384,Chester Bowen,atoiduvud@ozkatim.is,(949) 240-8293,835759,Bufma Plaza,Ibosajo,IL,59697,$2981.95,RED
385,Gordon Quinn,zimajnic@udu.sj,(515) 732-1285,764282,Nepvo Circle,Kagasvan,IN,93537,$5552.53,RED
386,Ernest Wells,mido@kal.hk,(322) 576-5517,225556,Juluf Center,Wunido,KS,96528,$6558.92,BLUE
387,Howard Garner,duv@jihtur.wf,(710) 214-2019,540814,Gelne Extension,Korbaka,MS,92145,$7096.10,BLUE
388,Theodore Fields,balma@eghem.li,(718) 571-6863,243453,Kuzdin Junction,Okitotjan,RI,64121,$1648.93,BLUE
389,Frank Bass,mofu@gijge.tl,(873) 744-7057,343709,Wazodi Square,Adavolej,KY,99916,$3021.63,RED
390,Rebecca Ramirez,gehwa@ah.io,(658) 397-4773,524338,Abici Heights,Dahignub,SC,44032,$5026.64,WHITE
391,Alex Gibson,es@rew.zm,(800) 645-8449,272547,Tikwa Street,Zofipwep,CA,19828,$4151.21,GREEN
392,Isabel Roy,rik@lonupiw.rw,(302) 318-2408,139561,Goped River,Cidekhi,WI,50142,$5886.22,BLUE
393,Dean Griffin,marcub@wogo.ke,(543) 487-1349,453560,Zuri View,Tamaur,MO,08100,$5375.83,WHITE
394,Ora Bush,fase@kiv.ae,(729) 564-3119,592025,Guguc Pike,Loziti,ID,70664,$102.36,GREEN
395,Emma Wade,nus@fikipni.org,(437) 527-2746,531166,Sebri Trail,Atritkir,SC,69007,$1200.48,WHITE
396,Lucas Wells,katu@pal.bd,(231) 364-7812,054387,Cenip Road,Muwsootu,MO,56750,$1700.72,RED
397,Kenneth Mason,doedopo@govkene.va,(513) 617-7441,516175,Deko Center,Tewivteg,UT,83954,$1890.69,YELLOW
398,Kate Strickland,noz@idean.ke,(222) 922-9168,847457,Eciwur Extension,Jafpafe,MA,11854,$7387.55,RED
399,Alta Long,narizlo@wunega.gy,(852) 946-5864,373697,Kaju Loop,Cizgoore,MO,03394,$2380.70,RED
400,Bettie Rogers,menfezo@epeheni.dk,(458) 244-6565,610885,Fipzu Manor,Wuzrubit,ND,28170,$8939.38,WHITE
401,Cora Clark,de@tog.td,(535) 520-1863,443617,Zuflol Drive,Pecahut,KY,52415,$3693.26,YELLOW
402,Elmer Parks,lik@ze.kh,(278) 575-8036,918006,Ugunun Junction,Waigian,IL,11321,$2434.52,BLUE
403,Allie Murphy,joub@no.ni,(820) 337-3710,428200,Sugepe Place,Ciavula,AZ,05622,$2383.27,YELLOW
404,Tony Arnold,ohwuju@du.tv,(273) 918-7171,797720,Rijej Ridge,Numivi,MI,81179,$1315.41,GREEN
405,Lucile Cross,kiz@kice.pt,(640) 826-9354,456814,Gecib Terrace,Vozeva,NC,55712,$4027.97,RED
406,Gene Johnston,can@jonu.bs,(829) 282-3970,241285,Repjej Way,Bipwika,GA,49853,$453.79,WHITE
407,Katherine Greer,ju@ke.om,(889) 460-3084,119733,Weepa Key,Efguofa,MO,69103,$4460.82,WHITE
408,Carrie Wong,nupoh@pame.ni,(385) 457-8335,113976,Huogu Junction,Kesgogiku,MO,77023,$5305.89,YELLOW
409,Brent Reyes,pikopolij@ecelnag.li,(808) 776-6884,571602,Numu Loop,Ozucupul,AR,57275,$1940.58,GREEN
410,Earl Spencer,fum@cike.to,(322) 389-4179,084612,Lirnem Way,Dezugeowu,NM,12140,$2607.74,GREEN
411,Arthur Colon,goliv@lutavti.gq,(573) 437-6096,815941,Ewozop View,Dikirdak,HI,16430,$4449.17,BLUE
412,Eleanor Newman,nopgil@remide.cu,(841) 573-8178,588762,Ocizi Parkway,Utforav,CO,43660,$5026.43,BLUE
413,Mildred Summers,hook@cuherow.gl,(708) 408-6846,335939,Jejcef Manor,Adalmor,NH,98843,$1665.60,BLUE
414,Bessie Wolfe,zedped@tumze.it,(806) 520-7798,782019,Getosu Court,Lopzece,KY,57584,$9388.05,WHITE
415,Maude Owens,pizlokor@si.fj,(955) 393-5837,923822,Vacop Path,Vupezo,CA,48996,$9230.55,RED
416,Carolyn Gutierrez,fakuv@wapitlut.bz,(377) 958-8635,327102,Biced Parkway,Ujpuuc,OK,03395,$2117.32,RED
417,Carlos Curtis,sulewa@fa.py,(502) 774-6565,569784,Ozvo Parkway,Mabavkuw,IN,77459,$8439.91,WHITE
418,Mae Hernandez,zokjij@ho.tg,(637) 210-1406,074361,Vomde Terrace,Wuborol,HI,44807,$3049.69,GREEN
419,Zachary Cobb,zih@ka.me,(720) 566-1512,500021,Kepcuh Heights,Ahizowpu,IA,20077,$403.04,YELLOW
420,Craig Jenkins,taminode@umcot.ps,(839) 637-1647,531199,Dazuw Junction,Ozuadiki,NJ,18899,$5259.91,RED
421,Henry Lambert,agve@ipeki.gl,(542) 429-1915,721618,Gotlo Court,Otporu,WA,99620,$9342.16,RED
422,Mabel Stone,zafekno@jij.gov,(405) 265-4086,064379,Fave View,Suljaam,MN,04436,$9106.87,YELLOW
423,Isabella Blake,cejmuwnu@iwe.mq,(640) 349-6615,517833,Matic Place,Vetcevda,DE,55498,$1811.73,RED
424,Erik Cook,oplugow@hucsujwud.lk,(422) 372-3855,781419,Jilka Avenue,Nuhvuig,NY,35093,$5800.81,BLUE
425,Steve Chavez,musfu@vurwer.uz,(642) 314-9306,006632,Upjej Pass,Akerehpi,OR,87311,$1303.45,BLUE
426,Willie Houston,api@da.cf,(918) 737-7532,049117,Codwij Terrace,Herocsu,MT,39797,$8962.36,YELLOW
427,Martin Lynch,fizuki@raisu.as,(231) 460-1302,635998,Hodu Turnpike,Sojatdev,NC,01552,$8985.92,BLUE
428,Teresa Thompson,vaibi@fipozho.ie,(364) 472-6090,154182,Viage Terrace,Nitbonca,NE,83225,$3715.35,BLUE
429,Lola Lopez,ni@vecirir.vu,(633) 922-7076,705552,Haru Trail,Gejitevop,SC,01286,$5611.89,GREEN
430,Grace Hill,nifcanew@umuko.ir,(205) 421-9729,682471,Riuda Pass,Wohgiwu,NH,66221,$8141.05,RED
431,Lucile Cummings,nizensic@ko.cz,(819) 635-5329,767681,Sutjug Plaza,Kopisic,SD,40313,$2457.04,WHITE
432,Ian Byrd,fumu@iw.jm,(931) 997-2445,199790,Giba Point,Hunvuguk,MA,21755,$6715.08,GREEN
433,Lillie Cook,zotniz@zuswoha.sy,(722) 919-1119,734273,Dega Center,Jageami,CA,96183,$8419.76,GREEN
434,Randy Lynch,ruon@azu.cv,(621) 826-7323,519068,Dotpa Park,Punondoz,OK,75511,$8851.30,RED
435,Melvin Barrett,kanenjaw@az.lr,(481) 627-2495,997643,Maupe Boulevard,Lesicuku,GA,04596,$5292.55,BLUE
436,Cole Klein,jakuhiv@togakwec.mm,(240) 778-6113,800881,Paefa Turnpike,Ivjiha,VA,16862,$1360.19,WHITE
437,Luella Ellis,ipiwanup@kemneho.it,(711) 634-3674,239130,Icopi Extension,Covudib,TX,63955,$4487.33,YELLOW
438,Jackson Rose,roz@imzed.hm,(245) 467-3133,301878,Opif Grove,Vawlimed,MT,87398,$2082.01,YELLOW
439,Lucy Holt,ocjaku@zavi.gd,(243) 609-7484,057505,Dokpe River,Ogtohfe,AL,38512,$6048.22,BLUE
440,Craig Park,gejecsab@la.uz,(724) 511-6247,029445,Nabnow Turnpike,Fajalehib,SC,25344,$2348.11,RED
441,Seth Henderson,hu@efbac.tv,(703) 874-7324,297561,Nupkag Center,Dipsapen,HI,54115,$1667.26,WHITE
442,Mittie Moore,koz@okijefah.aq,(340) 477-6631,091099,Bemow Junction,Ulijopu,VA,80215,$7900.04,WHITE
443,Mable Walton,esodulliv@pufazroz.hr,(667) 413-7882,578283,Kela Lane,Wobezpub,NY,19916,$9507.01,BLUE
444,Mitchell Bush,nodaug@akococ.dj,(544) 905-7851,597712,Utdel Parkway,Onedoghig,WI,52313,$7415.02,BLUE
445,Ernest Mendoza,ogizo@ibnetan.gd,(556) 716-6575,391008,Neslih Loop,Zaguzil,IN,15908,$108.26,RED
446,Polly Tucker,rakba@zizep.com,(336) 715-3156,148723,Nipud Street,Socfaruj,ND,61260,$8516.97,YELLOW
447,Maggie Smith,lorve@dadkipnaf.gov,(972) 763-5218,660843,Mifzep Court,Gadezpi,IN,32339,$6945.79,WHITE
448,Randy Burns,rizog@kilooto.dz,(876) 745-4041,665845,Hitune Manor,Fijokuaja,AR,64819,$43.15,RED
449,Shane Barnes,ubpueh@inipor.ye,(855) 540-9512,280671,Petiha Ridge,Pezegodew,NM,20755,$2538.63,BLUE
450,Terry Jacobs,wenozaz@ucu.bg,(905) 869-5628,147229,Fofmo Mill,Wowjirpe,AL,77274,$4636.78,WHITE
451,Keith Johnston,fimwodmup@kuw.bz,(364) 399-7387,503288,Mawit Pass,Cosbesum,SD,62788,$4650.84,RED
452,Corey Sims,vozaro@mah.ad,(960) 952-3396,684954,Gelu Avenue,Iheodga,CT,32752,$1843.33,BLUE
453,Christian McGee,icubav@ralafuko.ls,(326) 565-4789,067292,Abbug Trail,Fofosme,LA,60496,$9240.20,RED
454,Todd Rowe,relpiew@jam.kh,(877) 896-7012,266297,Busem Turnpike,Mudkagde,SC,34231,$77.34,BLUE
455,Jeremiah Cobb,zovipaf@us.in,(750) 913-2955,403259,Ebruj Lane,Cizdaaho,ID,51213,$2580.89,GREEN
456,Elva Norton,racosgip@wokbo.dk,(936) 865-7283,267939,Akiba Trail,Kakieda,OK,76756,$4898.97,RED
457,Frederick Brown,fa@guafudim.zm,(526) 613-1590,438919,Dofwu Path,Nawfawvu,CT,99681,$5623.26,YELLOW
458,Lulu Figueroa,kofig@vicuf.cz,(476) 706-5264,663267,Jihma Road,Minsarisu,HI,82219,$6117.87,BLUE
459,Abbie Casey,zon@ofson.ly,(980) 428-8395,868266,Raev Glen,Soevawuw,MA,63449,$2712.86,WHITE
460,Sylvia Sanders,cib@calvo.ss,(957) 224-5806,914256,Tuzuk Boulevard,Tefizne,CA,70975,$5344.94,BLUE
461,Henry Wood,ugiol@zokerwib.sa,(774) 356-5645,242994,Vudi Pike,Tudoboc,VT,65070,$6487.44,WHITE
462,Marion Jones,abanu@nuce.ml,(539) 767-8129,926134,Soce Place,Memdidzul,WA,72418,$7753.12,BLUE
463,Lelia Pittman,fasisu@zipovis.uk,(874) 709-6298,210443,Ujawos Lane,Urorofu,MS,58614,$5930.92,BLUE
464,Nannie Ingram,wak@ukta.cn,(958) 493-3889,551290,Wumut Path,Jatcakig,MS,09239,$9709.97,RED
465,Sallie Douglas,suh@noje.us,(252) 867-9876,414154,Opaja Grove,Rudzita,WY,15616,$2798.61,YELLOW
466,Mark Newton,silti@romo.qa,(552) 870-6347,724205,Tahcim River,Kawfuna,NV,95829,$5930.49,BLUE
467,Rosa Byrd,howew@ton.ke,(729) 570-3701,414309,Tijho Mill,Alapoflu,UT,99507,$925.54,BLUE
468,Alexander Beck,uz@luk.cg,(500) 656-9142,947914,Kohur Center,Onupolfo,RI,74063,$3233.40,YELLOW
469,Effie Reyes,pekgimeb@del.nl,(629) 478-7852,393696,Lerob Trail,Finibak,NY,43830,$8588.86,WHITE
470,Bess Bennett,gi@ez.ao,(550) 604-1419,898702,Zamte Pike,Cingolji,AR,67918,$2557.86,YELLOW
471,Hattie Moss,coafo@ug.fi,(988) 240-8779,020579,Mamti Highway,Saotemaz,FL,01531,$3711.91,GREEN
472,Hester Schultz,su@ovuuhwos.ye,(222) 941-8563,046185,Luhbaz Junction,Binjumem,IL,68206,$6711.35,YELLOW
473,Fannie Stone,oriwa@acisozbun.cr,(948) 992-4699,678221,Fione Way,Lokmobzu,MD,56034,$2235.77,BLUE
474,Hallie Lucas,hevzegsa@pitpo.cm,(709) 783-4029,321636,Dubol Boulevard,Boogzu,WY,26759,$5086.74,YELLOW
475,Alice Welch,kot@mudru.lk,(936) 854-1975,959888,Rartov View,Laasuv,NC,26033,$3586.36,YELLOW
476,Todd Payne,tato@ojmihom.pw,(412) 308-5934,870431,Rohhih Center,Kubuvec,OR,07838,$6722.02,GREEN
477,Mario Lane,fet@karososak.vu,(929) 352-1136,548124,Zogha Lane,Rurotu,NJ,35269,$5490.94,BLUE
478,Beulah Sanders,uhodewog@wofhunhi.sm,(377) 403-6804,185989,Jojbak Square,Wicmorug,MD,40574,$9253.83,YELLOW
479,Ida Bryant,erazojdoz@lor.si,(331) 438-2306,577731,Puig Loop,Udtehit,WY,09053,$532.89,RED
480,Willie Lindsey,udbi@rakgabko.tv,(360) 406-6164,727112,Peimi Glen,Sicecop,WA,19847,$7572.03,RED
481,Leonard Maldonado,zidedkip@adlop.org,(361) 677-1415,410836,Tugad River,Zeptepek,NV,62560,$2220.03,YELLOW
482,Mabel Gordon,debbak@eza.it,(224) 385-4189,537030,Odibor Plaza,Vipoic,LA,81452,$5086.18,YELLOW
483,Elmer Hubbard,ul@fein.ir,(685) 898-6926,872438,Sabi Junction,Cirdajco,SD,53363,$9887.97,WHITE
484,Lida Gomez,ejuupefa@hu.ro,(634) 910-6673,074721,Bubli Trail,Uruesame,RI,42922,$4684.11,YELLOW
485,Jesus Sherman,ah@bimva.nu,(586) 547-6886,156691,Eroin Mill,Zulwiwo,WA,12604,$8027.69,GREEN
486,Lenora Pearson,cakibah@pevij.an,(283) 547-4838,209341,Laja Loop,Nodojfi,OK,96424,$685.65,WHITE
487,Nora Goodwin,jegwowo@larsad.bv,(569) 235-7677,020728,Iklik Park,Hecopaw,MD,94814,$9083.42,GREEN
488,Lettie Simpson,hevac@edupoldup.ga,(948) 305-4800,466888,Bihegu Street,Cuchehe,NH,97854,$8673.78,BLUE
489,Alex Holloway,utohmik@sulbuwji.lc,(217) 722-6400,644626,Culow Boulevard,Olatobuf,AR,29504,$9413.74,RED
490,Carolyn Pope,gi@sidju.bm,(886) 437-1587,924798,Gefos Manor,Refohfe,NV,70488,$9839.13,GREEN
491,Josie Gomez,zulkik@lad.me,(417) 922-7112,899172,Ohigun Parkway,Badeje,MS,38394,$5110.69,BLUE
492,May Pope,hebosap@bi.me,(654) 943-2809,801915,Ezsog Court,Ihzotved,GA,23003,$4836.91,RED
493,Phillip Burgess,of@vuro.vc,(626) 283-9540,403869,Laomi Ridge,Uzugopur,ID,46650,$6702.99,GREEN
494,Estelle Hicks,favi@gicugi.ly,(636) 779-5499,601757,Fotel Mill,Niidmuk,AR,39123,$2890.10,WHITE
495,Ruby Wade,duido@zehew.hu,(860) 343-5541,807411,Gozki Pike,Cafuzoc,KY,06530,$6752.28,WHITE
496,Della Long,betuntu@gec.bg,(685) 330-4346,069550,Kogav Circle,Husfegcon,KS,60144,$8244.41,GREEN
497,Cora Cannon,ro@kupotec.ml,(377) 893-8089,183515,Luab Junction,Ininatat,ND,47639,$2504.82,WHITE
498,Sophia Gonzales,agvac@bezwovne.lc,(868) 759-4412,333941,Zomrum Point,Cehjucih,UT,39781,$1528.85,BLUE
499,Virgie Ball,ihrur@ep.mk,(421) 475-8612,214267,Rope Glen,Cejivte,IA,87766,$9211.96,YELLOW
500,Tillie Huff,ro@em.as,(964) 860-1716,616319,Gupek Drive,Wudmehkuh,NM,68221,$2353.93,GREEN
501,Lula Erickson,olaat@vi.hk,(324) 465-1790,951546,Kevlo Key,Semekiehu,WI,96964,$6886.49,WHITE
502,Herbert Patterson,vafob@oc.mc,(321) 407-3114,445505,Vacfic Loop,Wudhisoj,TN,63216,$6615.47,BLUE
503,Harry Schneider,hu@ha.mp,(661) 679-1396,948867,Vittuc Highway,Cauwenu,PA,67079,$6443.85,YELLOW
504,Mario Gardner,idaguro@ma.aw,(464) 390-7161,023452,Wivu View,Ahizatuk,NJ,88208,$7075.52,BLUE
505,Jean Roberson,zecdueni@ril.is,(606) 821-9057,454456,Vicuv Ridge,Catwawe,MA,11195,$2081.48,GREEN
506,Vernon Meyer,zev@ifaba.af,(678) 766-4134,799931,Ditduh Key,Cunfareg,AR,47462,$7485.68,BLUE
507,Irene Berry,sorce@hiw.vg,(913) 541-1962,812717,Humnuz Road,Jufbomwo,RI,12956,$1924.71,YELLOW
508,Jeffrey Boyd,wifha@vuw.gg,(910) 523-1636,166611,Jadco Parkway,Aguopiaco,WA,06919,$7111.37,YELLOW
509,Minnie Hunter,cabreka@sesto.bi,(934) 699-9533,591639,Wudwi Drive,Hendomfav,IL,84225,$7948.84,GREEN
510,Francis Diaz,uwarunaz@le.ao,(481) 377-7729,711024,Zahuf Plaza,Tehamsil,VT,95035,$5975.78,YELLOW
511,Sophie Frazier,zivagubog@wuif.sd,(927) 794-7777,380502,Jawe Pike,Dujuwap,DE,73042,$9494.65,GREEN
512,Micheal Chavez,viz@obbilan.mp,(800) 475-6481,376944,Gelaku Ridge,Zidoona,OR,17093,$969.54,BLUE
513,Steve Rowe,zivfudu@pi.ne,(542) 546-9688,890886,Jawo Ridge,Cuginujef,MT,33193,$1903.97,RED
514,Patrick Parker,tabuzebev@lovuze.gt,(901) 233-3747,439075,Deju Boulevard,Ducnafu,WI,79199,$9133.06,WHITE
515,Ruby Parker,la@uko.na,(713) 300-7922,956525,Udze Ridge,Abebasido,MD,98362,$3905.49,RED
516,Hettie Luna,aweci@ohavukha.gs,(483) 745-3216,652264,Ruwla Center,Zacugeduj,VA,43772,$2152.09,GREEN
517,Lloyd Lloyd,howcun@pa.sa,(853) 683-7352,314920,Adme Place,Zoipnik,TX,95580,$2814.96,RED
518,Rhoda Holloway,gat@tigusa.af,(786) 446-4029,707747,Furgof Extension,Anzessu,NH,21080,$9232.88,GREEN
519,Delia Moreno,uvaikusot@wenaje.bv,(313) 283-2311,101035,Moke Point,Taagju,KY,79953,$2406.68,GREEN
520,Ricardo Gross,la@hi.ae,(656) 851-9235,291182,Ehuh Pike,Ominubpu,VA,61210,$1753.05,RED
521,Mason Nguyen,tirzuk@nef.sr,(239) 606-2285,434135,Uromor Heights,Tackeoco,FL,60274,$364.41,RED
522,Alejandro Hicks,rut@vilet.cm,(666) 499-1971,282904,Rijew Path,Zikecame,TX,82445,$4221.88,GREEN
523,Marc Rowe,fajzi@tu.gh,(414) 753-6353,972627,Kagug Square,Virohce,DC,70856,$6400.01,WHITE
524,Lena Lawson,jurtoupi@vipoj.ms,(249) 233-9736,207194,Zouku Heights,Bipodwuh,SC,25498,$1725.08,WHITE
525,Olga Tucker,tidpis@doka.ac,(616) 479-5242,501965,Ciber Junction,Venizim,OK,14969,$9674.18,WHITE
526,Elva Flowers,af@armo.gn,(227) 531-3345,811226,Como Avenue,Sebzaketu,MA,39369,$8167.69,YELLOW
527,Sean Patterson,zociz@faenu.be,(371) 484-9866,751382,Ehazat Court,Eceritoh,WY,10202,$61.56,GREEN
528,Charlie Obrien,egaamiwe@uzjebtit.tm,(917) 597-8124,383998,Lewiw Street,Zehhikpe,MI,31722,$288.34,WHITE
529,Nicholas Hughes,pipe@nonozgen.mm,(400) 467-1849,620421,Zompe Mill,Zocuwzu,ND,77339,$1224.52,BLUE
530,Jeremy Roy,sivo@wisfuwcu.lk,(938) 351-7336,103321,Gazgu Highway,Orokede,AZ,67825,$6221.40,BLUE
531,Mable Walters,bijuid@datusora.sn,(319) 579-8412,704037,Iseew Turnpike,Gumkoko,MO,34478,$3674.88,RED
532,Ralph Carlson,ciilaneb@fodcen.it,(434) 441-8079,633712,Anzu Loop,Hivfuvas,OK,76234,$2746.99,GREEN
533,Maud Maldonado,loper@jukuar.cd,(604) 839-2515,779285,Hogcoj Heights,Rivijru,NY,81442,$2211.03,BLUE
534,Hilda Woods,puv@buf.bq,(352) 621-6139,542091,Ukwed View,Kuhurauc,WY,79961,$4992.50,GREEN
535,Harvey Davis,jufufaj@awufuldi.gs,(900) 588-8624,467643,Luhzeg Plaza,Wuvezev,WI,33901,$6803.28,RED
536,Bernard Graves,tosupfu@tecev.bz,(962) 936-6691,038629,Hovo Way,Nowifso,WV,67066,$713.71,BLUE
537,Cory Lowe,mudeb@fe.br,(767) 541-1122,513196,Worsuh Street,Obizesu,MA,12059,$7100.63,GREEN
538,Mathilda Massey,tun@ka.gi,(802) 377-6179,566790,Egdos Key,Fovifuj,GA,14102,$2279.66,BLUE
539,Hester Moran,hi@giwiv.co.uk,(221) 720-9724,861375,Fofhuw Plaza,Sivaca,WY,89256,$2937.52,BLUE
540,Stephen Moore,tifabwo@par.cv,(856) 850-2592,941589,Tozat Terrace,Uclohuz,MD,85344,$3769.06,RED
541,Brian McBride,cejboh@zudvi.ci,(985) 799-6187,217842,Zeza Drive,Jefjoegi,FL,07240,$5887.27,WHITE
542,Christopher Nichols,dosu@jorafhit.kn,(789) 617-5411,073783,Mepwos Mill,Lacoot,NJ,09724,$299.08,GREEN
543,Katherine Moreno,cuk@tica.bt,(389) 516-2281,222138,Kuuci View,Mebeel,KY,26289,$4287.83,RED
544,Jose Dawson,funor@pu.km,(370) 325-3460,002328,Lonvu Grove,Rerjuhep,MT,79985,$7160.11,BLUE
545,Frank Garcia,luhahed@ukbag.je,(401) 895-8945,918352,Obewa Heights,Tuneow,ME,22602,$2598.67,BLUE
546,Bill Patterson,loorfam@ta.sb,(638) 913-2955,486071,Erasub Lane,Zahonitu,NE,46563,$7456.60,YELLOW
547,Alvin Fernandez,vep@tobbijov.ad,(679) 761-9904,213810,Nacep Pike,Ugusefa,MD,28944,$1329.66,RED
548,Christine Ross,ruor@ogjuber.dk,(877) 967-4690,777184,Odabe Loop,Bipevri,NV,19657,$4745.23,YELLOW
549,Birdie Webster,sabke@bojibimi.sb,(916) 419-7533,727185,Jihu Point,Ufecipipu,TN,61635,$6117.98,YELLOW
550,Blanche Taylor,loanov@rakzoh.gl,(929) 497-9418,588365,Ison Trail,Zeizmi,PA,17368,$4283.81,WHITE
551,Isaac Adams,ubgiwwi@votokovo.ni,(233) 466-7686,864124,Ridvur Point,Romunejaz,CA,92923,$9018.50,GREEN
552,Marvin Simpson,bufuguku@catlabjo.cu,(221) 552-3820,527835,Depego Heights,Tecofu,FL,28421,$8757.04,BLUE
553,Mathilda Tucker,fa@rutorkaj.lu,(250) 298-1788,434948,Dozir Highway,Hisesra,MI,92057,$4994.99,RED
554,Callie Santiago,biiwicuf@fapsifa.kg,(811) 637-4701,340935,Lemi Road,Celepa,ND,62611,$6449.95,RED
555,Hattie Hampton,jon@idulobe.ms,(543) 508-2217,122446,Rukof Way,Zaderko,NM,76850,$4230.98,BLUE
556,Earl Adkins,sutpowwe@emup.bj,(969) 668-5430,481513,Ulubo View,Garogbor,RI,47751,$8602.39,GREEN
557,Richard Obrien,tefepake@vurrec.ps,(509) 612-9240,114848,Zedfop Street,Vodriru,SD,46647,$4421.13,RED
558,Charlotte Stephens,buwec@of.li,(722) 645-5254,787484,Aleki Plaza,Hasgachiz,AZ,12570,$496.64,RED
559,Gussie Richards,pi@dejsu.sl,(356) 456-9591,941640,Vusew Point,Lausze,MN,96420,$7559.92,BLUE
560,Georgia Chandler,azbemha@dof.sv,(284) 531-7286,627069,Hokus Plaza,Ekizamed,MT,51721,$6708.97,GREEN
561,Amanda Harvey,edocos@uc.sz,(365) 360-1641,800079,Buhec Key,Kefpokim,AZ,80582,$1798.37,BLUE
562,Dean Tucker,copemur@jueg.bw,(472) 730-8661,038196,Buutu Pike,Suvoivu,RI,14371,$2828.96,WHITE
563,Tommy Figueroa,miguvzaw@miohkij.sc,(769) 910-1600,488765,Heboca Trail,Litezus,ID,87079,$7256.24,WHITE
564,Jon Lucas,leol@kaf.cg,(472) 428-7858,653847,Imeze Turnpike,Hodabvo,PA,83239,$8408.07,WHITE
565,Raymond Meyer,vib@akpeube.sr,(634) 698-9753,314402,Huho River,Kodezudi,CO,52569,$8886.77,GREEN
566,Glenn Hogan,taoraato@ejoazopaw.tc,(649) 739-7852,767693,Tubnal Circle,Nejindid,LA,71014,$1349.67,RED
567,Joshua Todd,ecodukli@pomunwuf.mt,(525) 638-7817,077158,Kejih Street,Migviaci,VT,80323,$6091.63,RED
568,Don Dunn,ibuvaz@leco.im,(945) 408-1779,249401,Boodu Street,Beguciwi,AZ,14069,$2262.89,YELLOW
569,Gerald Webb,idoto@siwjevva.ye,(910) 869-2341,954385,Vazcug Lane,Vigebse,AK,24003,$1135.02,RED
570,Olga Baker,ki@hin.tm,(803) 906-7274,510690,Isulen Glen,Icduose,RI,58345,$2698.66,RED
571,Leroy Lopez,favisrot@fosulav.af,(459) 464-9382,530220,Tuwel Loop,Cahcusdo,GA,73418,$2439.25,WHITE
572,Peter Carpenter,cima@hiip.ba,(277) 835-1719,040581,Ahover Pass,Camvawew,IA,63245,$6031.51,YELLOW
573,Estelle Ferguson,saagid@fi.se,(406) 539-1214,644304,Radtu Drive,Ehlauge,MA,81326,$4945.45,YELLOW
574,Oscar Abbott,ta@bup.et,(366) 738-6358,104678,Zemtef Mill,Wutohah,IA,60344,$3204.00,RED
575,Myra Hanson,upec@ravwim.vi,(512) 509-7113,200044,Ricro Boulevard,Obewafvu,CA,22542,$8019.54,BLUE
576,Lois Carroll,fi@tasjoj.fr,(623) 634-5286,275751,Ullu Junction,Uluzitpec,WI,22416,$1771.22,WHITE
577,Charles Sparks,wawof@hamhurhu.sd,(922) 282-7665,051318,Doku Boulevard,Rujaiv,GA,51908,$5670.50,GREEN
578,Maggie Hughes,oriazcop@dub.tn,(819) 530-8050,811961,Vize Boulevard,Duitnu,NV,06137,$832.79,GREEN
579,Trevor Benson,wiotake@ro.hr,(824) 221-5436,928738,Vuppa Plaza,Tigive,OK,70113,$8528.92,RED
580,Elva Harris,wezevasu@nanow.ne,(545) 543-1872,473731,Buko Lane,Nosveduf,OR,02323,$9590.59,WHITE
581,Jane Miller,catibi@parjohuk.net,(911) 926-3807,297625,Alema Ridge,Ravunbed,WA,17931,$8412.68,BLUE
582,Willie Dixon,mu@aslu.il,(974) 796-1581,188292,Nirbew Terrace,Itegevam,MD,53436,$1077.99,WHITE
583,Todd Wood,we@hisve.sb,(800) 292-1858,335120,Lazna Parkway,Piznone,WI,67775,$7012.92,BLUE
584,Nathan Nguyen,vad@fo.pg,(708) 282-8861,536660,Barab Mill,Fogitbe,NY,79248,$2885.82,YELLOW
585,Lawrence Brooks,hos@sadel.pe,(616) 421-4722,561972,Kuna Plaza,Iweenfik,NH,70641,$471.89,RED
586,Leroy Keller,nuh@pubmas.ss,(865) 382-4054,823091,Vikwe Center,Viptoghed,AZ,31709,$1275.18,RED
587,Craig Kennedy,ecije@va.su,(615) 634-5431,028598,Amaduk Way,Uhenevuh,VA,07044,$1501.54,GREEN
588,Bernard Jackson,os@sed.az,(755) 491-4353,265527,Wehu Avenue,Tuolzap,NV,24322,$5769.44,WHITE
589,Shane Cohen,za@gashuti.vi,(479) 657-4049,920629,Tufow Highway,Kurono,MT,54088,$4705.88,GREEN
590,Nora Lamb,kaehugof@jakagaaze.mw,(985) 577-8941,329779,Tuzel Avenue,Fivifpuh,MT,75161,$587.14,BLUE
591,Lillian Huff,ca@nois.tl,(460) 407-8107,174709,Wabat Road,Agaguzil,RI,28778,$3855.50,WHITE
592,Nancy Lyons,umure@sijavuhi.sy,(201) 861-4818,664145,Zozjaj Street,Uzuceebo,TN,69632,$8914.88,YELLOW
593,Daisy Long,ivuzi@zu.co.uk,(526) 328-8508,039819,Wemze Pass,Hotavet,RI,02406,$4578.38,GREEN
594,Robert Perez,sat@mag.to,(450) 270-5551,369163,Wocwas Highway,Gauhki,WV,81928,$725.44,RED
595,Joe Evans,rawahawe@jampa.gh,(579) 828-1338,855215,Joni Plaza,Otvafica,WY,03888,$9426.31,BLUE
596,Frank Ruiz,fe@ufzepzaj.ge,(828) 600-4598,727174,Azta Street,Bezejajo,AR,71822,$3645.99,GREEN
597,Lula Higgins,vacpegir@omzogmo.sz,(577) 920-1428,665703,Fukid Street,Orozeplo,IA,48428,$6604.08,GREEN
598,Jon Scott,fu@emezgat.vi,(917) 248-1930,250693,Bofhad Trail,Sovtivsen,MO,76189,$3497.31,YELLOW
599,Genevieve Olson,fan@megojih.jp,(981) 756-9185,976044,Detsek Park,Dalgawov,MT,94903,$8055.02,WHITE
600,Leo Roberson,dosi@fo.br,(762) 481-8389,678178,Geke Highway,Akcovep,RI,47266,$4092.86,WHITE
601,Sylvia Thornton,omu@zipken.cd,(926) 442-9251,237398,Bukco Boulevard,Cenahjej,NC,27713,$8391.86,BLUE
602,Gary Ward,ankecuj@samhadi.sg,(661) 239-9955,884542,Ofsu Manor,Imokiap,WI,15380,$105.35,GREEN
603,Adam Stanley,cejiffon@veeb.fj,(847) 866-4947,569389,Jofjis Grove,Kaghuvgo,AZ,02301,$7072.83,YELLOW
604,Micheal Duncan,pukmoafu@tujoplo.ck,(306) 296-2218,197475,Vudus Lane,Cepise,MA,92961,$8497.60,RED
605,Russell Flowers,icoje@eswo.tt,(736) 368-1865,081420,Vabmib Loop,Mepdokime,CA,54078,$7260.87,YELLOW
606,Marie Frank,miplikima@tamo.gt,(505) 603-2613,720396,Bucos Key,Halezul,TX,31653,$5478.92,BLUE
607,Kevin Vega,hoczu@ev.mc,(460) 532-6950,398368,Didkim River,Dociloh,VT,85845,$8523.30,BLUE
608,Jorge Barker,fomivu@paburma.mh,(285) 400-3713,148465,Ilafi Ridge,Koegaton,RI,16251,$7417.69,GREEN
609,Landon Hopkins,ho@ductim.tc,(287) 859-7494,860869,Gegta Lane,Azsitud,MD,15956,$3772.98,WHITE
610,Bradley Underwood,tu@rok.vu,(288) 819-9831,249017,Dokaz Drive,Bipeziku,NH,14935,$3236.97,WHITE
611,Elmer Lindsey,jovkokatu@ubcib.dm,(283) 735-8068,733142,Uncuf Trail,Hirewegu,TN,22210,$7020.98,BLUE
612,Herman Estrada,japrum@duah.edu,(771) 905-9150,032599,Fana Square,Kihitme,WI,08314,$546.56,WHITE
613,Lilly Simmons,peinu@hecet.sd,(428) 728-9458,995661,Daknul Park,Hoezelu,MD,29992,$9075.00,WHITE
614,Willie Vega,pa@darupiad.ls,(620) 582-1110,333605,Seki Point,Pidkeuv,CO,49711,$5830.60,BLUE
615,Ray Waters,gotme@oze.th,(331) 609-1053,997179,Calo Avenue,Populip,KY,98549,$2238.86,YELLOW
616,Essie Ortiz,burewacaz@jonozi.cc,(709) 926-3331,262701,Wevbo Court,Sizoziwow,MD,02090,$35.15,YELLOW
617,Mabel McGuire,hej@ishaeva.lc,(553) 736-3946,369658,Nupsev Plaza,Ipumobgir,AR,20031,$3695.35,RED
618,Mamie Sullivan,micofu@jo.dj,(861) 831-1811,296534,Zoce Manor,Mokkoew,NC,15708,$8818.27,RED
619,Emilie Stone,olmujpo@dobgalu.org,(411) 230-2673,306950,Otifet Place,Feogva,WI,62123,$1705.33,BLUE
620,Estella Daniels,eg@of.tv,(210) 950-6860,784027,Joas Square,Olujipi,DE,57092,$6521.51,YELLOW
621,Ricky Wilkins,zupe@ezamemvi.ec,(768) 687-1575,479155,Segij Center,Deobbe,MS,40513,$5188.74,BLUE
622,Bruce Warner,gahsuge@vucor.sb,(602) 578-6473,812422,Bewva Extension,Wuvutfag,NM,72099,$5200.92,GREEN
623,Eric Guzman,zu@puse.sr,(549) 818-7014,252745,Junlug Path,Telutkun,AK,28561,$2089.97,YELLOW
624,Daniel Hoffman,givbipvi@fihazof.mr,(540) 847-7532,866445,Fecoso Drive,Kezcibaw,LA,23679,$1078.02,RED
625,Linnie Salazar,pek@oriwaep.at,(820) 465-4734,515926,Bedmo Center,Urcozveb,HI,23367,$5566.83,WHITE
626,Francis Gibbs,urealunuz@ot.fj,(232) 682-8928,994123,Joslet Terrace,Guvalmiw,WY,25736,$1681.19,WHITE
627,Lucy Weber,ofleh@eb.np,(641) 913-4267,164161,Upiput Path,Ejijohne,WV,01655,$2428.59,YELLOW
628,Eugene Parks,timadsof@leraama.cl,(514) 519-7289,934342,Heki Highway,Dormugu,WV,47438,$3305.21,BLUE
629,Myrtle Obrien,gavo@tesekus.as,(364) 627-7273,215551,Miiz Highway,Zafoko,DC,82883,$8692.30,YELLOW
630,Charles Ruiz,molom@hulwo.ye,(426) 837-1785,034317,Sawnes Loop,Rioseza,OR,21105,$9321.39,WHITE
631,Brent Sims,gaocuvo@ci.pg,(368) 985-5395,170960,Tadral Highway,Volufa,MT,00032,$2803.85,WHITE
632,Steven Bush,keumgu@bob.gl,(985) 801-2172,296559,Vope Lane,Editam,TN,71677,$7366.12,GREEN
633,Esther Bishop,ge@te.ls,(967) 912-1437,622921,Nopaji Circle,Hogati,NC,13351,$8572.96,RED
634,Alan Shaw,ni@petuvnab.com,(972) 221-4845,175548,Jukak Extension,Mejira,FL,45824,$1778.07,BLUE
635,Hunter Hogan,tersit@selew.im,(585) 797-3217,813522,Izjul Glen,Itowokos,GA,62806,$7468.83,BLUE
636,Luis Dunn,licew@nuvgov.tt,(448) 723-8151,296524,Lezib Avenue,Cebbatci,PA,81479,$3108.26,BLUE
637,Brent Delgado,enwi@tukic.bs,(522) 858-1169,748634,Guoga Path,Fispene,RI,54989,$8974.66,WHITE
638,Matthew Salazar,kidla@zoghowbiv.hm,(420) 955-9221,186651,Umopan Circle,Ranfetaf,MD,46860,$9492.20,YELLOW
639,Ophelia Lee,na@in.gn,(470) 775-1628,429477,Anale Road,Opahuvfi,RI,31279,$4625.86,YELLOW
640,Rosie McLaughlin,lavjo@kosvajji.vn,(846) 823-5245,057989,Cuhwi Junction,Essujab,NE,30645,$8359.11,GREEN
641,Martha Kelley,wuj@suca.kp,(315) 866-4334,005991,Waca Lane,Cohwocap,MI,83299,$5874.53,GREEN
642,Margaret Ortiz,bu@iso.pr,(808) 554-8577,786965,Uwavo Mill,Naffiofi,NC,93441,$2811.60,WHITE
643,Charlotte Roberts,do@cojen.ec,(540) 922-5460,717140,Erji River,Fiuvaik,OH,57745,$7796.50,RED
644,Isaac Curtis,puf@us.gw,(700) 893-4575,711826,Ovahu Key,Pazlilce,MI,32981,$6587.35,BLUE
645,Harriet Bowers,wur@keuhopaf.pg,(835) 273-6556,196981,Wammo Glen,Ikarawiz,NC,23738,$8355.16,YELLOW
646,Gavin Lowe,towij@up.bq,(658) 410-2355,075420,Volrub Manor,Woivewuw,NC,18866,$4635.28,RED
647,Bettie Gordon,cipije@ujjunmun.ke,(831) 670-3165,128382,Ohmi Manor,Ujbiom,CA,89445,$2215.12,GREEN
648,Steve Jennings,hava@govak.se,(613) 784-2112,549286,Waor Path,Jabijuko,HI,16309,$4182.26,WHITE
649,Sylvia Shelton,hesfocar@jisuwokiw.mh,(925) 940-5052,373500,Irise Grove,Ozipuze,NH,83335,$6160.67,RED
650,Lela Sanders,ihodeluj@ejuwow.gn,(704) 387-4905,660960,Odeka Lane,Macopeja,FL,05242,$9151.18,YELLOW
651,Jonathan Peters,ozejurvi@wodahtuz.vc,(714) 323-6336,685049,Cewas Square,Emelupha,LA,38673,$5953.75,WHITE
652,Jonathan Frank,midet@lembuf.gg,(230) 715-9605,812088,Asolus Center,Irninnod,WA,46434,$6796.49,WHITE
653,Etta Hammond,govke@kitiru.bi,(775) 321-4701,794265,Cepihi Grove,Vopeczac,IN,48942,$4184.67,WHITE
654,Charles Burgess,doab@vobi.in,(278) 629-9815,227699,Vobo Mill,Avegarivu,AR,03741,$333.75,BLUE
655,Nina Walsh,hiv@eweitafof.cg,(760) 835-6769,203100,Neen Manor,Mojupozid,CT,85768,$5955.25,WHITE
656,Allen Morales,ve@zuc.ly,(827) 576-2786,096930,Bahza Boulevard,Hojkipe,TN,47405,$738.86,WHITE
657,Sophia Cruz,ozaholkob@uhu.ro,(427) 839-7425,311634,Abiav River,Vugniija,AZ,61567,$4786.15,YELLOW
658,Rodney Lindsey,zunuzduh@coje.pm,(552) 579-2907,322556,Uvpa Path,Acibiso,WV,43497,$2123.58,RED
659,Lula Perry,heh@sitob.tv,(665) 820-6180,300355,Muzec Plaza,Pimviwgo,MA,63978,$7420.20,GREEN
660,Teresa Clayton,det@li.ne,(578) 699-2490,486600,Olji Manor,Mawkohji,MS,26520,$6066.71,BLUE
661,Charlotte Rogers,fab@uwe.ma,(824) 348-4718,455998,Uzevov Circle,Emomasat,HI,74892,$1095.44,GREEN
662,Alberta Gutierrez,so@pakigbo.jo,(756) 528-1509,020711,Boufu Point,Gogewvek,PA,63206,$2392.34,GREEN
663,Adam Silva,liulegu@uk.be,(647) 889-6693,085092,Amozen Trail,Vudnortik,RI,03557,$2331.00,GREEN
664,Victor Perry,zar@dome.na,(264) 258-8922,284041,Vacic Place,Wicume,IL,89057,$3526.29,BLUE
665,Effie Hayes,beijime@aleis.yt,(422) 765-3861,262099,Ibijaf Grove,Zudgemig,KY,87714,$4114.30,BLUE
666,Lester Copeland,lejbun@ni.ca,(774) 911-7698,249717,Zapbuv Highway,Towmisok,IN,16902,$681.02,BLUE
667,Edna Hardy,tukgom@kidsemuho.as,(937) 841-4722,557423,Elitu Extension,Arocahkec,NV,13540,$4675.84,RED
668,Dustin Cannon,ha@kadpoj.fm,(767) 783-1025,422779,Peca Pass,Ivehope,CT,76547,$2633.25,RED
669,Lou Sandoval,ramvapnus@rerhef.ma,(244) 334-5356,847801,Rimsa Mill,Tebpakke,MD,79139,$8897.14,YELLOW
670,Lottie Cobb,mam@decu.ph,(562) 985-8626,593883,Udupiv Mill,Ceferzab,TX,14774,$4569.60,BLUE
671,Tillie George,linoc@facapti.ss,(288) 768-3002,238804,Useta Extension,Honetluv,FL,57574,$8772.21,BLUE
672,Callie Gibbs,bi@udmovawi.cc,(422) 250-1998,785209,Pobdeg Loop,Owazinoh,AL,52252,$2843.57,GREEN
673,Dora Schmidt,mezovdev@gefwuho.ec,(223) 407-3931,868948,Hugab Loop,Kawgohma,CT,24576,$791.24,GREEN
674,Louis Cooper,cu@zi.vu,(504) 713-9211,642246,Meoru Grove,Bevieja,DE,18104,$8847.77,GREEN
675,Edith Garrett,kuutu@ehi.gh,(481) 345-7373,200101,Cepti Avenue,Woebhe,MT,32381,$3160.05,RED
676,Maud Robertson,iheik@ero.pt,(823) 740-2866,987113,Kohwe Street,Jirfoizi,SD,82723,$2357.59,YELLOW
677,Ethan Sanchez,liome@zi.sh,(413) 502-9856,473650,Hifco Mill,Rilawup,NE,52927,$1383.11,YELLOW
678,Lilly Perez,zutmigeg@gujde.nl,(703) 706-8288,070278,Devi Key,Lohere,NV,82161,$5395.86,YELLOW
679,Gene Wolfe,voboan@tanfoh.fi,(712) 277-6519,494132,Assef Glen,Mejewop,MD,16358,$9370.47,GREEN
680,Stella Marsh,ojpit@obni.tw,(228) 496-4340,281815,Ofibah Road,Benigivi,NE,32061,$1543.64,RED
681,Earl Tucker,kam@nagvoaco.mw,(577) 393-2154,956230,Zulti Place,Nojuskip,TN,84183,$7987.86,BLUE
682,Jeanette Morris,enaejce@ebuhumof.mg,(676) 863-6904,187563,Biufa Avenue,Upevapa,WV,32006,$1796.27,RED
683,Glenn Alexander,las@giwufse.bs,(341) 838-8481,026565,Buddu Boulevard,Wumoir,HI,72516,$5307.44,GREEN
684,Flora Collins,alaoli@uniko.ad,(717) 256-3007,923002,Fuip Loop,Gimate,MS,12247,$5386.10,WHITE
685,Lydia Greer,aghi@olomip.qa,(327) 780-7550,334189,Huchoc Trail,Zatamuow,WV,68872,$5211.94,RED
686,Eddie Waters,fec@pajuf.tf,(959) 754-3706,932836,Kaka Lane,Delukeg,NY,66160,$8195.37,YELLOW
687,Susan Collins,ritdic@du.pr,(461) 699-9753,897766,Rijan Lane,Catguudu,NM,75894,$7359.73,YELLOW
688,Charles Harvey,vak@dap.ie,(501) 804-1220,972095,Ridac Grove,Bopzuhimi,UT,50303,$5703.54,GREEN
689,Mina Ellis,zasiv@pel.gr,(763) 738-4974,490962,Bisgo Point,Ujurupdid,HI,00472,$6814.00,RED
690,Timothy Gordon,rocan@nu.fk,(947) 340-5494,629311,Votel Parkway,Amakub,KS,33026,$1184.47,GREEN
691,Jay Barker,tinono@ibi.sx,(820) 267-1631,086734,Zuzrun View,Dabhujev,NM,24703,$9410.60,RED
692,Christina Jennings,mirrenwe@ugfuf.nc,(675) 246-7447,191392,Fuku Trail,Esuevupu,OK,70669,$909.60,BLUE
693,Evelyn Hart,eroroiz@kisovad.ms,(265) 785-1217,861485,Ocsup Square,Loweru,KS,77250,$8867.76,BLUE
694,Maria Jackson,igozumfim@pehigug.zm,(684) 465-1120,236876,Jize Circle,Viofzi,UT,04486,$7483.93,WHITE
695,Melvin Jones,egacihi@vajgugep.ca,(652) 627-6972,563326,Soete Road,Kisine,ME,92554,$9603.89,WHITE
696,Louis Hardy,ikocoruwi@umri.kr,(368) 785-7839,696001,Fisbud Point,Luntauli,UT,62800,$823.61,YELLOW
697,Leonard Floyd,milragma@ajo.vi,(229) 422-6537,301223,Horfad Turnpike,Kolahna,MS,45188,$5725.69,WHITE
698,Mabel Gardner,secwa@ukowu.ax,(840) 681-8542,066093,Vamu Pike,Lutsefno,GA,69049,$3957.40,GREEN
699,Eleanor Saunders,bi@et.de,(888) 879-9672,522441,Alobe Drive,Urtigroh,NC,18999,$1470.93,RED
700,Henry Green,paja@da.ls,(425) 304-3701,001007,Odab Grove,Sesoga,MN,09074,$7999.62,RED
701,Nina Hamilton,kobivveb@civ.mo,(630) 266-7568,778573,Gosuj Center,Huamimez,NC,42261,$4900.67,YELLOW
702,Willie Simmons,ku@ju.zm,(750) 828-8703,611122,Mifdak Mill,Ovohufjor,NY,49032,$7199.53,RED
703,Cole Cole,iwa@infu.li,(449) 608-4985,660039,Kadi Drive,Tozvumgih,NC,17404,$9879.66,GREEN
704,Virgie Perkins,olo@baov.vn,(216) 289-4510,191619,Okpoz Pike,Leuhasu,IA,39988,$2163.60,WHITE
705,Lilly Chandler,na@je.ng,(575) 613-1374,693539,Hima Center,Bivaeco,ME,17574,$8335.63,GREEN
706,Edith Reese,jocnu@zuvhaniv.sl,(454) 213-2350,130137,Coge Lane,Gitnorude,IL,13563,$6688.96,YELLOW
707,Lulu Hall,raatge@ziffu.tz,(281) 454-5629,522795,Sibluj Junction,Zuswoupa,OK,03828,$7574.18,GREEN
708,Sarah Welch,ujpe@ca.gb,(455) 553-3626,881953,Butruh Path,Pacuub,NE,35810,$9836.30,BLUE
709,Lydia Ingram,zoja@so.gb,(784) 669-7971,793073,Ezobo Square,Pirtivmo,DE,98499,$4685.04,WHITE
710,Inez Wheeler,funo@jekaro.cn,(466) 571-7624,396811,Wunip Court,Vauzed,NM,34851,$9179.44,BLUE
711,Grace Harper,marwerhuw@da.fm,(945) 689-2524,806388,Vamod Center,Zactubbic,NM,68911,$9289.46,RED
712,Viola Holt,ipotueti@vutmivfag.bj,(702) 880-7283,979792,Jerni Pass,Kofagzar,WY,48677,$2247.41,BLUE
713,Sophie Hardy,cifur@iburusniw.mv,(533) 421-8793,194307,Guic Turnpike,Dehauj,CT,99944,$3959.01,RED
714,Adelaide Richardson,wagna@tat.mt,(320) 863-5217,699242,Lenpu Terrace,Huhmigsa,HI,75852,$8403.48,YELLOW
715,Gary Davidson,ub@potno.tr,(751) 699-5611,277737,Cusen Drive,Dawitja,IA,82704,$9968.53,WHITE
716,Eddie Carroll,ra@dufbine.ru,(828) 904-8317,615207,Bedso River,Fuftocaz,PA,13844,$7769.52,YELLOW
717,Gertrude Marshall,nahcek@capzi.ck,(462) 998-4817,596627,Temo Mill,Huwano,MA,96096,$1565.30,GREEN
718,Mark Long,vel@du.rw,(379) 261-9668,437718,Osnoc Road,Lorumij,VT,74767,$6484.40,GREEN
719,Olga Barnett,fagic@ucipolo.tv,(487) 343-7377,568831,Ofsor Mill,Ataotri,NJ,72301,$7988.25,RED
720,Jonathan Graham,nih@ecemuz.fi,(353) 845-4847,353110,Hugar Lane,Jicudlu,MD,00399,$1781.57,WHITE
721,Bettie Newman,loheja@tudutbec.edu,(500) 570-5942,452071,Cugeb Square,Liobala,MD,35714,$9621.24,WHITE
722,Henry Powell,ulas@binugop.bt,(420) 716-1088,617113,Cujco Glen,Icumepa,CT,97460,$4138.92,BLUE
723,Corey Reynolds,jej@kaopuuz.org,(831) 956-6781,842122,Becap Lane,Wimbozuc,KS,86072,$3833.04,RED
724,Victor Morales,cirbonwa@otli.kp,(715) 769-5440,728898,Cido Court,Osajaviv,LA,53477,$1116.59,GREEN
725,Steven Sanchez,zosul@ge.am,(362) 594-9436,997781,Fowcub Place,Junoshac,MI,69853,$250.17,RED
726,Roger Moreno,osdek@jegvugo.fo,(363) 795-9385,361130,Daita Street,Upirha,CO,86355,$7413.37,WHITE
727,Mamie Adams,fegkeba@tani.ro,(810) 595-2890,751914,Itgo Pike,Iluloup,NH,61483,$5161.85,WHITE
728,George Vaughn,tiwotnij@ape.ky,(502) 501-1354,984200,Ehume Parkway,Mufieg,NH,66593,$5622.18,GREEN
729,Jose Jones,agofo@eja.ca,(252) 497-8732,721266,Ignub Trail,Kehkofba,WV,25667,$5483.45,BLUE
730,Dorothy Bowen,aselosto@calido.fk,(331) 987-8728,157561,Dujwed Mill,Suugeizu,PA,65435,$599.39,GREEN
731,Martin Jennings,lip@keus.ms,(538) 640-2426,042947,Denlel Street,Momkofhu,CT,55719,$5218.14,WHITE
732,Joe Powers,dopo@sem.sm,(226) 534-3808,765144,Maruc Path,Nasifbu,CT,76647,$1576.80,BLUE
733,Mina Marsh,idezosem@uza.uy,(760) 925-1864,693621,Heno Grove,Botlupa,CT,07504,$6927.67,RED
734,Jesus Roy,was@toc.mq,(607) 624-7044,601225,Pikjew Plaza,Vasegza,WA,23228,$779.75,BLUE
735,Genevieve Freeman,wuup@ogujivi.tt,(675) 554-1534,340683,Mokha Court,Ragjodcal,IL,86808,$4075.18,YELLOW
736,Jayden Montgomery,ceohi@ebguv.tt,(548) 436-5084,162625,Buget Highway,Suneihu,IA,91953,$4037.52,YELLOW
737,George Gonzales,wawip@povutez.gn,(542) 902-3804,391152,Masek Lane,Odaholado,GA,20052,$1899.13,RED
738,Claudia Ward,vimete@etopeh.ir,(602) 499-3547,740554,Note Pass,Zodolwo,IN,13640,$9277.34,YELLOW
739,Lucy Dean,himupas@uwifidko.lt,(837) 787-1710,547366,Baja Circle,Cerleji,WV,80093,$2384.84,BLUE
740,Todd Cohen,fe@lizapbi.lt,(358) 506-9305,084910,Ijsiz Highway,Zahernit,WI,59297,$3573.17,GREEN
741,Nathan May,gul@uwuvohzu.tj,(960) 974-9185,960470,Geeti Way,Efnuja,OK,59182,$54.24,RED
742,Hannah Keller,voboara@puot.do,(604) 858-9926,699122,Zepde Junction,Woemuvu,MA,69036,$6266.84,BLUE
743,Edward Roy,upju@fifecawa.gov,(528) 772-2233,596891,Rulra River,Tijafno,IA,87130,$3899.03,BLUE
744,Victor Haynes,cimu@hedebiv.ee,(470) 964-2051,184960,Vafome Point,Suberriz,MI,80075,$4651.40,YELLOW
745,Susan Miles,bintuhuke@asiarpas.mg,(259) 435-4932,542353,Javeh Avenue,Towiciw,DE,97835,$5503.63,WHITE
746,Nettie Adams,wa@vum.np,(220) 791-8687,874001,Kizpew Pass,Akralhev,MO,26187,$7703.17,RED
747,Carl Ferguson,monozibo@havu.cn,(441) 297-1017,861820,Hici Junction,Fifiwram,ND,57325,$662.77,WHITE
748,Alejandro Hart,ina@zoalu.gp,(836) 972-2701,132637,Apisuc Plaza,Gugisake,VA,99261,$3848.20,GREEN
749,Ian Douglas,holowa@ragito.yt,(286) 231-2034,302650,Tecvup Pike,Hejefeh,NC,43626,$808.11,WHITE
750,Winifred Mathis,veszud@lagleleca.tg,(279) 709-8768,634448,Fidac Circle,Zekbemme,FL,27216,$4177.42,GREEN
751,Sarah Nichols,mep@goliwa.to,(546) 981-4429,727271,Kojive Pike,Emudobtu,SD,90789,$8842.54,BLUE
752,Olivia Nguyen,sasca@wi.td,(707) 604-4149,229669,Vaner Highway,Kihovbot,KY,77898,$6814.50,BLUE
753,Irene Davidson,nu@apidego.md,(752) 224-9888,706275,Ecutud Junction,Azoucuwe,WV,66107,$3060.95,BLUE
754,Della Weaver,zatzojgiv@teshoci.ki,(408) 846-9263,827435,Izmo Turnpike,Naafcif,OH,31975,$257.32,GREEN
755,Gregory Kim,hezbi@bugap.al,(770) 288-7320,252633,Jizziw Way,Fedjiide,MO,18800,$9618.35,YELLOW
756,Iva Graham,ge@lav.ua,(862) 414-8948,324888,Nobte Park,Noduwuowi,NY,97502,$5998.98,BLUE
757,Bill Greene,togicewep@aw.ao,(307) 601-5075,468852,Wutped Circle,Abuwocme,DC,22803,$4745.44,WHITE
758,Clara McDaniel,kic@fojzuag.km,(245) 659-4568,302514,Mevav Drive,Juwazrik,NC,68988,$3959.37,RED
759,Nathaniel Weaver,savzidju@or.fk,(544) 967-5188,333657,Idual River,Pajnicom,OK,21257,$4110.95,GREEN
760,Johnny Robertson,la@usajewa.mg,(845) 331-9188,969205,Tehda Lane,Uwevazus,NJ,25737,$6428.41,BLUE
761,Leah Sanders,geama@uzciwe.na,(825) 995-6061,464919,Jeju Grove,Ipeseneze,NM,01901,$7614.00,BLUE
762,Loretta Silva,do@nos.ac,(261) 258-7497,427264,Sadnut Ridge,Elimoral,MA,12556,$9794.67,YELLOW
763,Peter Vasquez,tideep@namfaoso.eg,(400) 516-5126,218877,Odawo Trail,Liruwac,OK,72832,$3824.91,GREEN
764,Clayton Blair,zipele@rumeca.ni,(946) 831-7883,056986,Salar Extension,Hogoper,SC,85642,$9970.91,YELLOW
765,Alma Sandoval,cokapca@esuhudok.ga,(452) 916-3619,849884,Ereru Glen,Wifamo,UT,65527,$6941.56,YELLOW
766,Dale White,gikaj@jallo.jm,(785) 240-5412,283022,Valuh Street,Poskawi,WY,04335,$6937.43,WHITE
767,Jane West,zanew@udawej.ci,(469) 765-7677,350979,Esel Lane,Duenike,MT,79612,$8450.50,GREEN
768,Myrtle Alvarado,pacdeuh@zawvev.lv,(206) 353-5204,481073,Sudwu Road,Kesojica,LA,34120,$5150.12,WHITE
769,Evan Adams,zahatmew@wo.bh,(308) 344-3066,254099,Embas Mill,Vokowojo,ND,45272,$4926.48,WHITE
770,Bertie Patrick,gomozi@ob.fj,(761) 908-2840,965825,Icwa Highway,Rajwome,TX,34582,$16.38,YELLOW
771,Fred Knight,selkom@tec.cw,(870) 449-6022,702751,Funkuf Key,Mitosuusi,UT,28556,$6492.66,RED
772,Glenn Lopez,ec@awbocfe.gr,(322) 894-3962,253297,Likla River,Onavomu,RI,55613,$4784.20,RED
773,Herbert Chapman,favumi@ud.br,(972) 821-9691,088811,Mupji River,Armeme,NV,67860,$863.19,RED
774,Craig Estrada,om@oreum.net,(359) 565-8586,671356,Wurmo Avenue,Kekazwel,OK,26468,$2395.77,YELLOW
775,Mario Mitchell,pi@ewodi.gw,(239) 530-2499,116518,Nubit Loop,Umucusped,MT,69670,$1418.32,GREEN
776,Harriet Beck,ov@civace.vu,(570) 465-7094,754668,Otirih View,Webisuma,WV,41905,$4748.12,YELLOW
777,Rebecca Ward,felolal@af.lb,(330) 376-8681,843184,Rivzuf Court,Eteosjo,AZ,67793,$6723.92,GREEN
778,Danny Hamilton,mizpiv@ezogipnaf.pt,(870) 484-7555,227540,Zuura Place,Ohiuniaru,MD,76469,$8607.29,RED
779,Chris Vega,kit@echib.au,(244) 398-5187,312083,Hohmo View,Himhedel,VA,13881,$6868.54,BLUE
780,Tom Marsh,vuoh@bomworavi.sy,(285) 274-3821,153677,Wogfar Park,Kicisib,AL,69889,$3809.40,GREEN
781,Lelia Beck,ena@jefucu.tr,(566) 660-1368,990850,Seki Avenue,Wovesni,OK,24480,$9585.72,YELLOW
782,Genevieve Reid,kuj@tihmo.gu,(320) 247-1521,269861,Osicah Loop,Pefulwu,TN,35379,$5564.34,RED
783,Amy Boone,raoguti@son.im,(641) 544-3607,764860,Apbu Path,Iwtojpu,OH,21889,$7774.93,RED
784,Jeffrey Moody,hoctadote@vek.sc,(400) 997-3482,622639,Fadim Plaza,Cemeve,MA,29402,$1326.07,RED
785,Myrtie Burton,wejbinu@oc.je,(703) 968-1364,073011,Wuzose Highway,Edoewaso,IL,76316,$264.72,GREEN
786,Rachel Curtis,mumotij@lupabku.bz,(325) 208-5068,083797,Ehmol Key,Zoejaci,MS,18699,$9240.50,BLUE
787,Carolyn McKinney,vagu@kumtu.cc,(707) 830-6234,513411,Kanla River,Beemibeb,RI,91431,$9728.88,RED
788,Rose Black,fewer@jibcime.kn,(217) 277-7498,482588,Nurvuz Mill,Ritunpuv,MT,41625,$114.12,BLUE
789,Mason Pearson,izeserziw@nunus.ye,(460) 772-2045,378515,Edlob Square,Lurjojid,DE,37804,$3449.48,YELLOW
790,Susan Carpenter,wanu@posravgac.au,(537) 238-1223,068304,Tesfa Ridge,Ejijestul,NM,58060,$8630.10,BLUE
791,Mina Norris,rigrus@perjuv.nr,(722) 742-2383,686381,Nena Drive,Pakrutve,AR,55014,$2930.19,GREEN
792,Josephine Yates,muba@uzozo.th,(445) 886-9166,729629,Uwri Manor,Gilwufsuf,MN,54375,$7491.81,WHITE
793,Eric Barnes,temenul@op.pe,(677) 574-5420,861594,Wahmaw Street,Fonmanfal,CO,02073,$6271.59,YELLOW
794,Leah Gardner,vemjouti@kenu.lb,(751) 903-2960,107816,Cepluz Path,Norhoroh,CA,53311,$3799.76,WHITE
795,Elnora Schneider,kozapsu@bijitgo.mr,(727) 680-7407,554049,Mullop Park,Kikaese,MT,25256,$2362.19,YELLOW
796,Margaret Colon,mi@camle.kg,(727) 278-3238,690172,Verma Trail,Heelaet,TX,58622,$6285.37,YELLOW
797,Jeremiah Long,bicukiki@ocve.hm,(375) 504-7332,413667,Gagope Terrace,Ubihicur,KY,77786,$3009.75,RED
798,Don Bryant,zuf@ku.mo,(609) 712-6297,524157,Ipmi Highway,Tigcobkur,RI,51796,$9313.80,YELLOW
799,Mayme Lee,zuwedapu@awo.su,(363) 218-3830,784250,Nube River,Sejujhi,HI,21966,$2352.40,WHITE
800,Ray Wright,dur@ipu.ph,(306) 838-2706,812472,Jecwe Road,Baivagow,HI,12795,$7107.05,RED
801,Gabriel Parker,sigi@hoif.lb,(927) 494-2110,757954,Kali Court,Pucuvzup,NC,47194,$2979.64,YELLOW
802,Tom Marsh,onoras@kidugzu.ws,(822) 815-7159,319947,Tuna Parkway,Unepobesa,NJ,50221,$3695.64,BLUE
803,Barry Copeland,ime@fegnikjat.md,(346) 632-6978,423111,Hijlaf Mill,Ohgicaco,IA,80746,$4609.21,RED
804,Jennie Hansen,dog@ite.td,(764) 839-5448,740303,Ogaeni Road,Midesnoc,NC,26927,$4964.31,YELLOW
805,Luke Beck,zugin@bu.mq,(268) 908-9542,856102,Gaig Extension,Wicdicti,CT,94138,$4774.83,BLUE
806,Christopher Reeves,deafu@ca.cd,(773) 277-7681,804959,Feow Way,Vanmezude,OR,67110,$2516.16,RED
807,Alejandro Rivera,upa@wuputidag.sa,(320) 635-9572,949253,Jatgag Path,Udailoor,PA,96819,$1156.11,GREEN
808,Michael Robertson,kik@aj.tt,(983) 216-8209,629286,Uvuso Parkway,Tisefop,MA,37336,$3053.94,WHITE
809,Violet Frazier,sokuz@mudzerhag.ht,(387) 542-8401,938489,Deruk Path,Potlafjik,ME,63955,$4095.68,YELLOW
810,Henrietta Carr,muzurit@zewur.cd,(817) 758-4051,949051,Heeg Center,Difsoru,AZ,57138,$1950.21,WHITE
811,Isabelle Caldwell,tibog@pepetze.vn,(411) 506-3158,203516,Apolis Pass,Duswutuha,GA,53526,$240.52,RED
812,Jason Gibbs,doja@bemsap.tf,(600) 430-7613,588279,Pihoc Road,Ahilzi,ME,25912,$591.06,RED
813,Roxie Hughes,ewuozomeg@ve.as,(845) 575-2566,398285,Benad Glen,Wokhusro,AR,62974,$4455.24,WHITE
814,Frederick Warner,to@malim.io,(614) 819-7031,680581,Oche View,Zenunba,VT,39992,$7716.70,GREEN
815,Frank Poole,eranid@dam.sv,(315) 900-7504,192186,Gizruk Turnpike,Lueszaf,MN,58582,$5392.85,GREEN
816,Duane Bailey,sa@kuteuve.co.uk,(613) 509-5513,353713,Kemif Avenue,Hijithok,WV,54633,$6202.57,WHITE
817,Tony Peters,la@ute.vu,(700) 463-3667,558312,Mutav Parkway,Zaltamze,MO,50591,$7623.14,GREEN
818,Bertie Carter,toupvot@adekavite.kh,(382) 312-1601,589162,Borev Boulevard,Kudedow,WA,84759,$6881.57,BLUE
819,Harold Santiago,ikisega@lusozof.ua,(606) 781-3287,687788,Vuobo Turnpike,Decadmi,ND,07190,$8498.40,GREEN
820,Sallie Mills,monat@vusemo.gw,(426) 759-5998,031995,Kogjar Square,Tidina,AK,32353,$2396.26,WHITE
821,Evelyn Houston,onagajez@laufi.mt,(430) 624-6241,188821,Weket Trail,Cusgevtet,MS,06095,$8019.25,WHITE
822,Manuel Wagner,osjosno@pi.ki,(221) 509-7424,717921,Firej Park,Ucuakiro,ID,97190,$9404.92,GREEN
823,Lawrence Simon,go@joti.kw,(969) 444-9250,035166,Udkag Avenue,Geiline,HI,20947,$7368.71,WHITE
824,Lucas Watts,paz@javulizu.ke,(909) 637-2082,895224,Huwe Path,Ruhweteg,IN,52130,$1250.49,BLUE
825,Norman Turner,jogoz@ojwewu.ao,(778) 314-7027,360755,Faol Junction,Wucreha,OR,94226,$7184.76,GREEN
826,Ada Bradley,gu@sahnupita.qa,(755) 363-9629,045921,Rinbaz Glen,Eromusuv,NY,96655,$4048.03,RED
827,Tillie Butler,osfi@zose.hr,(244) 772-1061,847193,Tucdu Manor,Seegiso,OH,45673,$3071.98,WHITE
828,Harriet Bates,ten@ope.cc,(649) 627-9839,074963,Detar Avenue,Zulnise,RI,33729,$1896.70,RED
829,Steven Delgado,ra@tiaji.cf,(776) 355-8989,266151,Nojbu Key,Radgozo,TX,68299,$752.56,BLUE
830,Eva Douglas,geshum@seez.cg,(989) 456-2565,138191,Bacej Avenue,Afvikic,VA,66557,$941.03,RED
831,Leila Lowe,sep@wogogu.uk,(269) 686-5021,189276,Saek Avenue,Izilaviw,AR,24660,$5313.45,BLUE
832,William Newton,anicever@tujpo.ng,(874) 759-9840,653440,Suta Court,Jamteruc,WI,31329,$2092.58,WHITE
833,Louis Hubbard,mopju@dubaztiz.py,(465) 695-9476,171653,Raimi Terrace,Fagouv,MD,66065,$6948.13,BLUE
834,Floyd Snyder,geckatev@womo.ps,(722) 281-4649,345617,Fegag Highway,Wiffafrev,GA,00357,$132.57,BLUE
835,Frederick Jefferson,cuvauki@idi.bd,(222) 405-7095,441847,Opecuv Court,Funevur,IL,17092,$621.17,GREEN
836,Nathaniel Williamson,buko@fovdu.tk,(657) 422-8105,687982,Vedgoj Terrace,Ukomupid,WV,53681,$2913.62,YELLOW
837,Jim Romero,keswedhuj@bop.tp,(301) 941-5253,885881,Ewese Drive,Tehmeni,GA,81237,$6665.53,GREEN
838,Austin Vargas,ter@zazpicod.net,(860) 522-7360,351910,Gobgo Drive,Ukdokos,IN,44298,$4007.95,RED
839,Maurice Taylor,wujah@terburup.py,(635) 798-5070,412044,Vaopu View,Adtiwuj,CA,99358,$3283.10,BLUE
840,Clifford Wilkins,raj@hopfozto.je,(273) 610-5537,882678,Zook Way,Wucoini,OH,13491,$6276.67,RED
841,Nelle Hamilton,igikoc@cob.pf,(387) 400-2306,180105,Kecfo Point,Toefuro,NY,91668,$2513.20,RED
842,Nelle Ellis,hozep@he.na,(616) 794-3310,391494,Ezouju Road,Julowig,NV,30838,$6742.45,BLUE
843,Ethan Watkins,os@if.to,(878) 801-7056,630132,Uvzo Heights,Delidozi,OK,10331,$5785.88,GREEN
844,Amanda Bass,kak@woigaca.at,(284) 228-8664,101895,Sepbic Drive,Ubicetdiz,NY,55142,$4046.94,GREEN
845,Lora Jordan,atwapteh@iwegocev.si,(927) 992-7928,030289,Jupav Boulevard,Ajupeej,NM,70216,$9436.85,RED
846,Clara Williams,mikevo@su.kr,(445) 912-7117,584323,Dues Road,Ocureta,UT,65564,$4734.76,WHITE
847,Duane Briggs,te@wur.ph,(407) 391-7363,318912,Siuw Road,Izmuag,TX,79804,$7235.49,YELLOW
848,Adeline Bryan,kiwe@huz.ps,(744) 609-6413,314555,Kuvmu Circle,Kenegi,CT,38575,$9996.78,RED
849,Terry Oliver,sebbad@pugaupi.gp,(543) 275-1958,726835,Cotec Lane,Cocnukoda,NM,26332,$2063.51,BLUE
850,Ada Evans,mabimco@godni.ws,(988) 253-4725,809648,Rioc Lane,Vidduodu,IN,50138,$3175.26,BLUE
851,Sylvia Watkins,sep@hulvursuf.tw,(643) 697-9457,874418,Kejruw Pike,Mabehcac,MN,74728,$5176.96,GREEN
852,Samuel Franklin,wudodo@din.kh,(253) 947-6877,253296,Agap Court,Bibtamo,NH,08265,$7572.07,BLUE
853,Iva Delgado,dil@fek.cz,(366) 532-1930,794694,Juute River,Egizoreg,NV,73578,$2979.83,WHITE
854,Eugene Phelps,tutmenah@iju.is,(521) 755-3048,903437,Jumze Ridge,Avokebob,MS,92778,$8525.65,WHITE
855,Rosa Dennis,topik@buhuse.my,(229) 784-2141,956075,Kojles View,Sigredus,OH,79228,$5574.06,GREEN
856,Duane Williamson,si@vivli.ws,(377) 660-6286,906649,Efedi Avenue,Mobeiri,OH,80463,$5942.58,WHITE
857,Garrett Cortez,ezhe@vuiwah.bi,(562) 491-3077,859971,Gigu Pass,Fuhlursa,RI,64230,$3469.37,GREEN
858,Lillian Mullins,vuwke@pa.ug,(980) 202-4676,269980,Malvoj Drive,Jeuwko,ME,01654,$3709.24,YELLOW
859,Cody Hernandez,ipikizfa@fa.mv,(701) 346-7407,582998,Naclaz Turnpike,Ciphulvif,SD,12982,$922.45,GREEN
860,Adam Potter,wil@kit.hr,(632) 246-2542,398031,Ojawi Road,Ujehobhep,GA,60603,$4185.83,BLUE
861,Wayne Pratt,poh@nizuge.ag,(367) 635-9844,263957,Lele Glen,Suucaze,WA,35909,$1072.63,YELLOW
862,Lelia French,kutijta@cec.ly,(945) 525-2875,042242,Ketih Trail,Obamize,AL,72528,$2203.00,YELLOW
863,William Gilbert,filzal@culju.fj,(451) 977-6234,009612,Togih Glen,Owuhurnoh,DE,67421,$4033.27,BLUE
864,Cameron Glover,ev@anopep.fr,(202) 636-9260,901461,Nikbi Way,Oroimpo,NC,80849,$929.10,YELLOW
865,Eliza Floyd,cezzonej@uzuw.co,(519) 544-4237,707937,Uvaugo Road,Ebitimi,DC,02808,$6723.25,BLUE
866,Jerome Ingram,hu@powrudu.bn,(703) 945-7598,081616,Poufe Square,Amvaef,AR,53316,$5427.64,RED
867,Susan Nelson,la@uwumoz.sh,(808) 714-4864,212237,Ilzi Junction,Vesirezi,MO,39915,$2798.96,BLUE
868,Blake Jimenez,mel@rab.in,(780) 643-5858,990750,Perdam Circle,Hofheho,HI,67975,$7426.99,GREEN
869,Jeremy Walsh,ezvuf@uwuneali.kn,(927) 663-8049,505312,Miraj Parkway,Gewosu,CO,76314,$8969.73,WHITE
870,Charles Clarke,ahace@avuoza.ad,(806) 427-3116,712976,Wudi Parkway,Geggele,AZ,03108,$1625.78,WHITE
871,Noah Hale,suf@wazujoase.ms,(924) 442-7222,390862,Jobhuk Junction,Uturitrem,CA,38029,$9156.00,YELLOW
872,Jordan Willis,tawir@navwu.pa,(938) 389-3850,606000,Zellut Path,Jugapus,NH,73266,$6996.14,RED
873,Donald Glover,rin@uwapav.pe,(875) 762-2776,145570,Cafjeb Court,Lornene,MN,07073,$4287.51,RED
874,Jackson Miller,batkokju@bak.ly,(845) 502-4510,423576,Bajte Junction,Keipowev,OH,99308,$5932.55,GREEN
875,Alejandro Griffith,leep@fersic.sk,(231) 202-6283,629172,Raba Heights,Wemviblu,GA,54692,$5194.48,BLUE
876,Maria Holt,taow@hucal.mh,(660) 542-2535,951853,Uwejog Path,Mihcoci,MT,58590,$2635.85,BLUE
877,Sara Mann,fe@gaoge.pr,(672) 276-2127,607241,Ohijez Turnpike,Uwoheljav,MD,67086,$1064.63,YELLOW
878,Elizabeth Nunez,tohir@ujhibkaz.tv,(573) 426-1367,285395,Jumu Court,Doobbap,HI,61368,$7751.95,GREEN
879,Fanny Bowman,suwfek@ku.ua,(538) 910-4074,807025,Risal Ridge,Tihezdos,MA,30810,$8257.66,GREEN
880,Daniel Sullivan,usecal@iwaveb.do,(814) 506-3584,680240,Vees Center,Waapidi,NC,40473,$3116.78,RED
881,Nannie Cummings,liza@likoh.kp,(876) 564-7882,618332,Wodok Parkway,Sopopwod,MD,69771,$890.84,RED
882,Fanny Bush,mot@buzsugil.uk,(319) 289-3758,649418,Tekun Point,Rizavif,WI,03109,$1213.87,RED
883,Jon Cunningham,togi@bisacfi.bf,(444) 378-6630,776921,Nufu Grove,Zuromgud,NM,57247,$5304.79,GREEN
884,Louisa Coleman,ape@wukheb.be,(978) 969-4821,660581,Owcu Circle,Cujimvo,MD,31727,$6900.85,BLUE
885,Etta Williamson,ceaze@juvbecul.rs,(506) 994-9568,479977,Ecner View,Porsail,TX,67379,$3422.19,GREEN
886,Brett Alvarez,ezhu@addah.ls,(375) 994-8049,721277,Avumi Glen,Isatuka,HI,31187,$564.05,WHITE
887,Christina Norton,acirozje@lafinkol.hk,(751) 760-9326,721285,Somon Key,Rutirib,AR,58169,$2246.49,RED
888,Steven Rodgers,mukudo@lizaip.ro,(964) 951-3542,029520,Ahuzag Plaza,Tiduver,AL,37970,$1478.29,GREEN
889,Minnie Carson,gifa@ku.gu,(851) 507-1672,742387,Gapi Boulevard,Hodkigca,IL,32561,$6218.56,RED
890,Edith Zimmerman,ip@ihsa.cl,(727) 462-7126,619999,Lismi Pass,Regetoke,AR,65676,$1106.96,BLUE
891,Herman Ingram,lokeril@cova.sn,(450) 866-2900,116381,Fepgic Street,Laviig,WY,36504,$2453.66,GREEN
892,Andrew Walsh,woccu@ge.ne,(615) 428-7320,777020,Toraz Plaza,Ameuhwig,NJ,89092,$6140.14,WHITE
893,Laura Tyler,weakimu@ogumuvun.km,(727) 952-8736,789211,Esogo Parkway,Zaajekup,NY,71560,$6680.32,YELLOW
894,Oscar Bowen,kanokal@koflanga.ch,(209) 674-6072,900820,Rilse Loop,Hubfufzo,NV,71966,$251.46,WHITE
895,Mae Christensen,um@dihijira.kn,(350) 968-5441,774543,Posuc Boulevard,Hezsakli,OR,19283,$3481.69,BLUE
896,Steven Ramirez,fu@wozujsez.om,(811) 944-2677,898763,Zowegi Glen,Wugife,RI,50037,$3524.20,RED
897,Edna Allison,om@rulaw.do,(369) 225-7130,035350,Ukwum Trail,Wiofied,OK,17147,$4666.81,WHITE
898,Jeffery Foster,leujaki@utoz.hk,(205) 540-3325,428974,Foeg Place,Noigija,DE,12584,$8504.83,BLUE
899,Earl Murphy,tebuli@kes.kg,(547) 577-1325,186761,Gojes Drive,Culdapkaz,WY,24646,$8765.39,GREEN
900,Ellen Henry,imira@humhaufa.ac,(732) 509-8560,013453,Dilo Glen,Nedewa,PA,74065,$9014.61,GREEN
901,Cole McLaughlin,vaj@ehbu.ag,(666) 379-5243,448778,Ekwu Mill,Donelwa,DC,16901,$1361.75,WHITE
902,Vera Casey,najiono@ufbaugi.mc,(704) 959-8074,936273,Uvme Pike,Lemasvac,ND,68632,$7300.04,YELLOW
903,Melvin Buchanan,kuizaef@piz.fm,(932) 475-5976,662805,Wuid Grove,Hobadoka,NV,17672,$3956.75,YELLOW
904,Birdie Guerrero,hojveamu@famah.fk,(380) 629-2454,617089,Beshic Terrace,Zewowde,NE,58588,$1052.58,WHITE
905,Mollie Graves,kefi@decvek.td,(879) 752-3796,124281,Ubuis Square,Kideam,MI,83638,$2242.48,YELLOW
906,Allen Powers,fupcuc@mo.mg,(326) 346-4023,894139,Titbuh Court,Duwudisav,SC,86980,$7377.83,YELLOW
907,Willie Rhodes,toghac@luddav.mr,(320) 326-9443,824806,Temwih Path,Mejambat,WI,87132,$9919.32,RED
908,Shawn Marsh,ijzupel@was.az,(367) 649-1900,268582,Cizewe River,Woleho,OR,45326,$8526.00,RED
909,Corey Lyons,huzfo@ugbeza.mz,(740) 538-6446,191896,Penu Junction,Cupcewlad,CT,59339,$6646.54,WHITE
910,Angel Sanders,zun@zat.za,(733) 891-9175,964305,Otho Parkway,Nobefha,SD,03126,$1971.91,YELLOW
911,Dylan Richardson,niwdaku@fisinodom.kw,(261) 781-6133,932348,Ewbit Highway,Cuhawub,CT,25730,$7037.77,WHITE
912,Eva Lee,afeilefi@ma.es,(889) 539-2096,326747,Ferzid Path,Ogoolnos,MO,62145,$6782.51,RED
913,Isaac Page,zufcid@touzi.ck,(932) 491-4967,240444,Henfo View,Ehizuje,MT,96512,$2442.34,YELLOW
914,Jeanette Perry,rumusge@gaeno.ky,(865) 918-6492,744739,Dopi Point,Mewekpi,MI,15242,$2848.04,WHITE
915,Raymond Glover,owe@eta.dk,(754) 734-3021,162093,Wuini Plaza,Highefah,OR,83003,$5687.35,BLUE
916,Lida Olson,agodaz@muti.tn,(543) 232-5794,136984,Luko View,Hujsurimu,NE,93223,$5039.33,WHITE
917,Gabriel Price,ihe@obom.de,(548) 405-2779,086587,Diad Key,Etotaosu,IL,79701,$5710.16,WHITE
918,Mayme Carter,liafo@ka.at,(826) 465-5802,149971,Josu Pass,Pasujot,ND,54286,$3283.83,GREEN
919,Tommy Perry,fi@gunto.ms,(715) 950-7391,647907,Fihro Lane,Rezoffat,NE,67015,$338.59,RED
920,Leonard Jones,fej@ic.jo,(467) 612-5189,573189,Veoba Terrace,Bofuzgor,WY,00235,$5002.16,WHITE
921,Manuel Rogers,keziv@pe.bg,(800) 319-1652,585327,Tuskuj Terrace,Teekaseh,OK,47725,$3981.00,YELLOW
922,Rachel Patterson,luogfu@wivi.ms,(426) 572-3078,714383,Keih Path,Astipuz,MS,84576,$7674.60,RED
923,Dustin Moss,alakacej@nim.vc,(556) 696-6181,153693,Wimih Plaza,Ciebeus,IN,63959,$2329.03,BLUE
924,Violet Patrick,huif@am.sd,(903) 442-3780,069674,Ligig Terrace,Hubogi,MN,57989,$4543.63,YELLOW
925,Douglas Yates,fif@ud.gov,(907) 628-9812,319558,Udeut Plaza,Roerim,IL,74228,$4074.17,BLUE
926,Virginia Cox,ijnultij@womir.gq,(763) 766-8361,489860,Dubsat Manor,Huvogvu,VT,36822,$2880.27,YELLOW
927,Ida Newman,ejuvuvbig@uzeamzil.fj,(961) 639-9952,283720,Nakjag Park,Vojadib,MN,37188,$6523.31,RED
928,Wayne Gordon,je@liehfo.sx,(500) 758-2449,569266,Belgaj Parkway,Uhmufi,CO,54431,$5008.06,BLUE
929,Cody Lucas,bol@rulojiv.cz,(556) 353-2474,809590,Redah Glen,Amubavi,VT,61066,$2358.05,RED
930,Edgar Martin,daknowe@uwaobu.gt,(972) 845-9322,393662,Dueva Loop,Zuosifup,OK,53457,$3068.44,GREEN
931,Edgar Greene,nelatab@kimco.ro,(736) 316-4896,798616,Gulida Highway,Gimopic,CO,88198,$9486.93,YELLOW
932,Hallie Norris,diklozi@wekahat.bd,(501) 571-9207,020911,Boede Terrace,Enwaluco,AL,32854,$4942.04,BLUE
933,Elnora Clayton,sacgovge@lufra.id,(263) 298-4736,744445,Momil Ridge,Wutfuwbi,ND,04232,$5078.69,GREEN
934,Ethan Stanley,rumsil@vocri.vg,(679) 348-4360,063621,Reumu Mill,Izkilmah,WY,43941,$152.20,BLUE
935,Vernon Smith,wujav@do.hm,(584) 504-1973,849246,Ufine Path,Kikefmi,AK,18451,$5690.82,WHITE
936,Travis Caldwell,hi@socfi.mx,(583) 627-7907,298518,Gakul River,Nulziur,AK,52598,$5660.74,RED
937,Bradley Hawkins,kuvham@owe.gq,(261) 594-6586,796277,Ogtaj Circle,Rewaid,IN,00103,$3586.87,GREEN
938,Francis Christensen,paowi@hipmi.qa,(403) 390-6892,594358,Wual Court,Uwejejer,DE,50304,$8480.39,GREEN
939,Dennis Rios,bidegibi@nizhukfag.cu,(852) 599-1211,636842,Vowuv Extension,Nugvihal,IL,95066,$9063.13,BLUE
940,Milton Phillips,kiw@sitzo.ms,(422) 274-7147,613905,Jami Loop,Robguvsar,OH,64815,$6473.44,BLUE
941,Todd Horton,femji@decritkiv.rw,(777) 382-6908,897305,Uvuva Grove,Tozutwit,KY,48536,$3002.60,GREEN
942,Madge Joseph,we@hivjulseh.zm,(736) 576-4101,960452,Wuno Path,Poznejan,LA,94616,$2382.21,RED
943,Isabelle Todd,rit@viilapa.ci,(445) 616-5256,693484,Ilono Parkway,Mihlewiv,WV,04562,$7239.34,RED
944,Sean Jenkins,mo@zehhodi.fj,(249) 753-6367,937206,Joeh Mill,Rezihju,HI,37109,$9737.02,BLUE
945,Antonio Nelson,seduk@nowajda.mu,(954) 868-7364,923974,Vebim Road,Nipjejbig,HI,51141,$1348.69,GREEN
946,Terry McKinney,sekaur@owiacupa.eg,(688) 997-5983,793617,Neheb Place,Tohwemose,NE,48990,$9859.59,GREEN
947,Tyler Pratt,zavokke@folecla.gd,(522) 399-6353,329736,Lidi Highway,Wudecid,WA,99642,$8435.27,RED
948,Gordon Becker,gaug@mijan.no,(454) 223-5959,538791,Ciov Way,Irtomles,NY,65395,$8412.51,WHITE
949,Clarence Wagner,rezo@jatrecuf.ng,(934) 811-3940,978081,Mecu Path,Cegnozu,ND,34450,$950.97,BLUE
950,Erik Ramirez,sopkagaj@kekmat.ug,(526) 380-6484,310497,Alajul Court,Awarucgog,WI,98350,$7711.20,GREEN
951,Lulu Perry,pinziwlih@narrutej.cn,(832) 907-5213,186563,Ohosep Center,Lopiehe,NE,66480,$7671.57,YELLOW
952,Lola Spencer,zu@isra.eu,(227) 255-6177,653196,Vasmo Key,Unrelik,RI,19161,$2463.25,BLUE
953,Isaac Robertson,eljew@ewzu.cv,(214) 652-3739,308696,Benes Turnpike,Lodgehki,IN,50250,$8557.54,YELLOW
954,Leah Jones,burvuub@maaf.ne,(976) 820-6732,481525,Tino Center,Gedutnos,TX,82780,$8802.87,YELLOW
955,Tillie Walters,ra@cite.ao,(933) 959-2780,449064,Idni Boulevard,Nitewuc,GA,71365,$1939.94,BLUE
956,Cordelia Dennis,ze@podmo.km,(803) 582-2767,139092,Fukosa Square,Salhudi,UT,88446,$7335.10,RED
957,Genevieve Hammond,ze@su.tv,(418) 268-8146,849770,Veiv Lane,Amoiseka,AL,22125,$5361.29,WHITE
958,Nelle Quinn,hitag@meda.bo,(845) 320-7038,222997,Adewim Manor,Foklicci,HI,27539,$1618.68,GREEN
959,Ella Goodwin,tunbu@dup.gn,(370) 975-3159,975516,Wufaz Way,Lawizew,IN,65559,$7253.30,WHITE
960,Lee Fitzgerald,ewetour@mipuro.gr,(431) 760-3376,607171,Hiczu Heights,Sowijro,SD,02588,$3762.13,WHITE
961,Lilly Ramirez,bufmab@jusiwinam.bg,(947) 494-1688,811726,Oviaj Boulevard,Ithawif,KY,28249,$8705.61,BLUE
962,Annie Colon,cocut@moeji.fr,(380) 734-6545,499443,Dusmo Way,Feomoaba,SC,42756,$4056.57,YELLOW
963,Logan Sherman,ce@cemmulle.mo,(764) 364-1502,351671,Amiawo Park,Geleba,ME,47308,$761.01,WHITE
964,Isabelle Phillips,zoc@secinhu.il,(726) 958-8910,341426,Jetjo Glen,Ilanogfuk,LA,00398,$5730.19,YELLOW
965,Rosa Simpson,muf@nabuzubu.je,(701) 722-9278,786752,Caci Glen,Bomaro,WI,27852,$1997.14,RED
966,Lucas Sanchez,maru@putmirok.cv,(212) 617-3785,021518,Cevteh Way,Nenpogna,CO,04581,$4868.87,YELLOW
967,Helen McDaniel,emujoztog@sefwip.bd,(681) 724-4770,000276,Opacoj Court,Wetakuso,ID,42046,$698.66,GREEN
968,Ida Bush,nab@des.cd,(445) 783-5702,019529,Cupmu Grove,Afelivaf,MO,20333,$8923.01,RED
969,Hallie Evans,fo@reazuluz.sr,(204) 262-4026,264126,Zahlik Way,Wujana,ND,18574,$3391.17,GREEN
970,Lettie Roy,fivjepo@ji.uk,(771) 500-3226,396285,Setfeb Place,Loluve,MI,44988,$737.89,BLUE
971,Patrick Paul,nael@ru.lk,(403) 716-3546,880324,Ureep Glen,Lekpodtup,LA,07086,$6351.15,GREEN
972,Jim Brooks,fis@uni.do,(830) 407-2375,772325,Roti Manor,Jiseho,DC,76731,$6362.37,BLUE
973,Winifred Ferguson,fuciw@radif.lv,(307) 396-1728,027612,Lirne Point,Tutbahhu,AZ,66849,$1383.77,RED
974,Jeremiah Montgomery,geza@nodeno.om,(971) 631-1028,926843,Leru Avenue,Rismujnam,IN,49457,$6813.67,YELLOW
975,Christina Warren,adaolideh@ce.eg,(478) 629-7933,587765,Girpi Center,Bofgaggig,WI,83195,$486.24,RED
976,Erik Curtis,fob@lihaje.eu,(858) 274-2420,372654,Paiba Terrace,Wiborbab,HI,39782,$1917.78,WHITE
977,Victor Lane,nochopok@rek.zw,(722) 252-4520,827433,Tigsib Path,Okeinuhar,ME,26072,$7718.98,YELLOW
978,Henrietta Schneider,ubzawkoh@cacij.aw,(738) 500-7296,132356,Guvde Path,Huklagon,AZ,78773,$4205.10,BLUE
979,Luis McKenzie,li@ub.sl,(914) 508-8610,475904,Tugi Glen,Sohlabel,IL,86895,$1692.31,WHITE
980,Helena Cobb,ohehuko@diwhodhu.km,(951) 429-9833,303091,Sado Junction,Hiopojiv,OH,26128,$3114.12,WHITE
981,Jonathan Curtis,pijvafzaf@apfanwod.sz,(947) 509-8212,450352,Rare Pass,Jotfefof,MT,08086,$3406.72,BLUE
982,Corey Cannon,pu@kedavme.br,(731) 707-7121,611052,Pozjon Loop,Epbupu,DE,54620,$4469.54,RED
983,Chase Graves,joja@rulmaka.la,(444) 927-7524,035427,Wovva Terrace,Puvokur,VT,54006,$4435.09,WHITE
984,Edward Perkins,tadebja@ekiimiwow.us,(712) 897-7680,581520,Turu Square,Bicpapezi,CO,80645,$2358.97,WHITE
985,Cody Nguyen,fuvkurim@wacura.lu,(351) 803-6279,605734,Onpel Drive,Tucorogub,TX,98557,$3349.72,RED
986,Leo Spencer,li@hi.cx,(651) 753-3637,839445,Togjo Point,Tijozig,KS,93041,$5935.93,GREEN
987,Allie Boone,emuso@papeab.mm,(479) 750-7645,544861,Bane Manor,Cevemice,DC,41348,$8734.98,BLUE
988,Howard Powell,vudek@zelpah.pg,(778) 201-8137,687453,Copi Path,Uhomemo,MS,15588,$7028.48,WHITE
989,Jared Alvarez,zoznahup@catufuudu.cc,(679) 988-7750,768266,Naaga Boulevard,Doakohac,UT,51600,$815.16,YELLOW
990,Winifred Carroll,cevev@tidup.pm,(402) 953-7812,856651,Izna Road,Jinuro,AK,10053,$7298.87,BLUE
991,Essie Coleman,re@bafazwuj.ru,(666) 912-8083,820614,Have Circle,Lahodolas,RI,18724,$6349.98,GREEN
992,Lucinda Peters,udo@feamacot.by,(738) 765-5771,523221,Vodat Street,Watnawso,AZ,12532,$6085.17,YELLOW
993,Virginia Burgess,jo@vauwa.mk,(849) 445-8557,448644,Nozik Trail,Bakusutoh,VT,07108,$1709.18,GREEN
994,Brent Pope,cuwad@huzehca.bo,(353) 834-3190,176922,Obeera Grove,Bevopej,NC,51016,$7683.55,WHITE
995,Susie Curry,tinlepjiz@ifo.de,(279) 315-6566,336863,Hiuj Court,Galija,HI,51733,$6525.29,RED
996,Mayme Hogan,caz@vumadu.rw,(336) 214-3369,843230,Rehof Park,Hitawuw,ME,90994,$14.93,BLUE
997,Pauline Robbins,jisin@od.pm,(705) 508-4333,883202,Lore Grove,Fetaknig,AZ,34594,$3333.94,WHITE
998,Harriet Farmer,nava@zifsor.ge,(208) 604-9340,197816,Gofug Park,Ewonuvuk,ID,46164,$1559.20,WHITE
999,Jack Cannon,hip@je.to,(981) 880-1347,404015,Soaza Loop,Gaoboemo,VA,52591,$9745.13,GREEN
1000,Sarah Nunez,nu@lomuwec.gt,(341) 522-9833,631583,Ifej Street,Urecewvat,KS,31990,$9618.11,BLUE
1001,Mabel Adams,ome@vov.mk,(672) 444-1365,312570,Umit Road,Duwigbet,HI,25118,$9907.22,RED
1002,Barbara Russell,ipwo@licetru.fo,(223) 888-4762,967983,Ofiime Pike,Sucakabu,MT,16817,$7045.41,GREEN
1003,Leroy Brewer,ame@zu.cy,(919) 213-2607,289658,Ehiij Heights,Nikogud,MI,17162,$6220.34,GREEN
1004,Louise Holloway,bihwaub@moz.sz,(476) 905-8579,213471,Toliv Terrace,Vijteabu,HI,07967,$9476.38,YELLOW
1005,Clara Ramirez,lu@olvav.py,(732) 630-8837,375965,Afge Road,Repcodzar,WV,07382,$4212.36,YELLOW
1006,Alma Jensen,ovi@ji.bt,(670) 945-8724,889683,Sibod Highway,Keguime,NH,51933,$932.11,YELLOW
1007,Russell Murray,laz@ifibol.sm,(482) 872-1352,746215,Awci Highway,Uzumimovo,PA,43875,$1996.68,WHITE
1008,Hannah Underwood,baaz@udmu.tv,(567) 407-3327,959568,Zakat Plaza,Mazeaju,MI,26134,$2392.02,RED
1009,Leon Figueroa,pijug@ju.sj,(775) 879-5754,188909,Uzce Avenue,Fugebo,NY,26765,$9275.36,RED
1010,Nina Houston,wikafgoc@eh.ae,(231) 264-5767,168266,Pakel Parkway,Pofseet,OR,49709,$4143.59,RED
1011,Lucy Barker,wiid@ihuziwuw.sa,(722) 789-8418,100422,Vilimo Circle,Soktugor,UT,09420,$9403.74,RED
1012,Lucy McLaughlin,avosed@luf.kp,(458) 543-7574,413353,Huek Avenue,Woikpa,ID,65704,$9249.78,BLUE
1013,Nellie Saunders,duvjif@esohi.ag,(873) 725-8150,070294,Rorvof Park,Ekokudhoh,WV,53147,$3840.09,BLUE
1014,Louisa Strickland,di@suedafuj.tt,(919) 644-3985,895600,Jodkeh Trail,Udfakur,AK,32855,$8087.23,RED
1015,Bettie Bradley,beca@cuduhaohu.tm,(218) 510-4286,473026,Ahuho Court,Liosgav,CA,50009,$1336.38,BLUE
1016,Leah Hansen,rujwov@ve.mh,(846) 776-6895,021419,Taej Glen,Ugjacot,TN,50998,$2186.39,BLUE
1017,Devin Holland,odo@ommuri.sc,(942) 405-9661,043434,Ralov Square,Huzikov,OR,16925,$3133.47,WHITE
1018,Dora Castro,cicjiwos@aw.id,(302) 219-4580,454022,Fenoc View,Bevumu,OH,77804,$4634.63,BLUE
1019,Cecelia Roberson,pof@okoti.mm,(924) 884-2379,339924,Jekiz Key,Sovruva,ND,40257,$885.65,GREEN
1020,Alvin Taylor,jikuraj@corico.gb,(444) 607-4371,247429,Kuno Avenue,Sehpood,AZ,23290,$7859.45,WHITE
1021,Gabriel Guerrero,ireidhe@fuccetvoz.pf,(337) 850-9870,154283,Utuho Glen,Evwaluf,MD,26245,$3340.94,RED
1022,Sallie Parks,higijpi@jenohzan.sb,(227) 980-2195,008766,Ikfok River,Uzvilo,NC,77674,$7980.98,YELLOW
1023,Gabriel Fisher,toziwab@faj.nu,(274) 419-7113,521784,Rupwum Square,Esogesdum,MO,07159,$433.73,BLUE
1024,Cody Hodges,vabjat@vutzali.cy,(784) 617-9304,004980,Darov Highway,Aroabfa,AR,46951,$5176.70,YELLOW
1025,Lois Schmidt,idrak@zibob.pl,(813) 797-7411,266561,Gucugo Extension,Puwuvepo,NE,38282,$1698.53,BLUE
1026,Mike Foster,vewecur@sowu.qa,(214) 600-6812,338402,Poku Circle,Ocnugra,AK,58626,$6392.50,BLUE
1027,Eliza Morris,za@ciptak.ga,(842) 601-8816,900440,Forrel Road,Risekpok,MO,03863,$1847.76,YELLOW
1028,Elizabeth Blake,si@bihbi.ir,(547) 850-9682,054532,Kian Ridge,Seabocol,NJ,59154,$8772.56,BLUE
1029,Herbert Tucker,ufraljec@pirkozom.ie,(550) 206-4427,590927,Dulgic River,Funmejo,NH,39251,$2014.04,WHITE
1030,Isaac White,bigceek@posbipeg.cd,(663) 203-3667,299057,Deddac Terrace,Vanihi,FL,44837,$1279.75,YELLOW
1031,Ray Cummings,foos@bo.td,(946) 901-1275,600545,Jajcu Turnpike,Otdude,MS,23091,$7625.00,YELLOW
1032,Kevin Moran,oreja@amago.ve,(564) 373-7235,404871,Sinne Point,Ikzega,LA,23277,$4881.63,YELLOW
1033,Shane Patrick,talo@epwugbil.eg,(288) 331-6148,783913,Filoj Pass,Anecuhag,MS,56901,$7095.26,BLUE
1034,Antonio Ortega,fe@ohevopow.ca,(951) 821-4518,645251,Ecaku Junction,Nuwzogwev,LA,55934,$1013.65,WHITE
1035,Hester Fox,ehaicevob@an.br,(711) 399-1015,760944,Ditlit Turnpike,Bocnivah,AZ,87021,$7232.71,YELLOW
1036,Joshua Wilkerson,gopzioj@le.mx,(602) 892-1552,978289,Afbo Grove,Sararel,OH,91457,$1151.67,WHITE
1037,Emily Gomez,hamevze@kom.bz,(828) 709-2138,563894,Ihuhoh Grove,Mugusev,DC,43324,$1292.12,RED
1038,Christopher Bryant,enpes@abzog.cc,(305) 860-9034,778898,Fici Parkway,Oziurefu,ME,94535,$4057.93,RED
1039,Adele Olson,hedpujig@li.gd,(468) 548-7561,689962,Zejaz Square,Kupictuz,GA,54374,$2143.32,YELLOW
1040,Sallie Lee,ufihimnub@azucor.ua,(620) 354-2241,096128,Lofo Place,Budekre,VA,94216,$6626.12,YELLOW
1041,Corey Farmer,ja@uw.zm,(525) 864-2608,137890,Bilto Highway,Mojunufuw,MT,28240,$5746.66,RED
1042,Lois Leonard,ikijokunu@vilse.gg,(515) 513-6412,948184,Deok Way,Vumbanvic,NM,97600,$3051.26,RED
1043,Ann Perez,ja@vufnusi.td,(253) 728-4183,638559,Hije Street,Golweme,FL,45745,$4029.13,BLUE
1044,Martin Evans,geza@cobisog.er,(549) 726-7301,149411,Jusure Way,Urceede,TX,75999,$5387.40,WHITE
1045,Steven Stevenson,harocdev@paov.ne,(733) 945-1314,193473,Vufwu Terrace,Ukvevo,AK,59402,$2825.04,GREEN
1046,Dorothy Garcia,rehce@ze.cn,(585) 489-2565,526393,Vear Court,Bukuza,SC,50384,$5504.00,BLUE
1047,Alice Black,fullo@uceleptok.es,(510) 685-3092,524766,Deroh Road,Guftilu,OH,84336,$6976.16,BLUE
1048,Josephine Carroll,jojiz@zec.kg,(274) 745-5767,317511,Bakker View,Pomedit,AZ,09561,$6539.06,BLUE
1049,Erik Nguyen,wij@bib.ye,(603) 980-8849,728141,Nibo River,Pausalu,HI,28158,$3915.48,WHITE
1050,Chester Horton,nujuh@seg.lk,(344) 949-1954,344053,Cotoko Road,Fuijubo,AK,12291,$4455.70,RED
1051,Edgar Diaz,wi@cacosi.pe,(543) 533-2711,607107,Hejgaf Plaza,Ojmuluk,UT,59826,$3383.99,BLUE
1052,Madge Burns,affa@vonrowhep.cr,(502) 205-5270,257222,Eduhag Park,Wummapofu,NY,27528,$1965.04,GREEN
1053,Danny Kim,manowa@jefa.gu,(587) 471-1180,800433,Adki River,Bujemo,AK,09238,$3886.51,BLUE
1054,Amelia Floyd,gif@guhcuzmu.ad,(641) 893-1055,169221,Izoup Parkway,Vobahe,NM,87313,$5464.11,BLUE
1055,Chad Mills,wobzigseh@inji.bh,(618) 205-8190,940759,Zasi Parkway,Suhvuctov,KS,36969,$4386.93,YELLOW
1056,Delia Bennett,muru@limkoje.mc,(721) 457-6128,380685,Ohune Path,Hezisa,IA,27969,$475.17,GREEN
1057,Matilda Stokes,zar@difaceki.ma,(607) 234-6242,984832,Kurog Pike,Tonkusaha,IA,15237,$8082.15,WHITE
1058,Lillie Carr,putuv@ahpe.dj,(612) 796-4175,769314,Puvu Circle,Josraet,UT,38117,$6960.08,WHITE
1059,Isabel Hale,jana@asebefo.vu,(275) 236-9853,563848,Rebfov View,Patiku,ME,69018,$1689.32,YELLOW
1060,Alta Alvarez,ilapujco@emugu.ly,(840) 744-9894,866891,Zauj Point,Jegcaom,NJ,90157,$5863.79,GREEN
1061,Isabella Pena,suecomev@viklater.mc,(621) 596-5385,015629,Givlot Avenue,Ojineffa,ND,45776,$2824.87,YELLOW
1062,Lucille Delgado,oruzotazo@pipit.ir,(832) 690-7879,007980,Korba Turnpike,Viducena,WI,47415,$2271.29,WHITE
1063,Peter Christensen,imif@em.is,(357) 851-4598,931424,Sedju Parkway,Wifovzu,DE,18607,$794.40,WHITE
1064,Marguerite Harmon,ja@gotse.bn,(536) 453-8036,691556,Wako Extension,Vugugu,NM,35168,$1893.94,BLUE
1065,Bessie Obrien,asvufape@huntu.sa,(509) 283-9330,631068,Beze Circle,Enkangip,UT,42743,$7905.02,WHITE
1066,Jayden Carroll,nobi@niblikda.ws,(903) 261-6980,812633,Gaku Street,Kozusa,OK,41981,$6415.79,YELLOW
1067,Annie Frazier,evwal@wa.gl,(675) 929-7109,444311,Tono Loop,Buhejas,MI,03199,$2388.63,YELLOW
1068,Hilda Rogers,epifov@tusur.ac,(765) 331-3940,128046,Nowej Plaza,Ozjekcas,MO,30698,$5840.94,BLUE
1069,Julia Smith,nujaz@vak.sh,(859) 712-6484,265543,Ruimi Park,Cikidi,ID,25377,$3662.98,WHITE
1070,Danny Howard,nok@be.pr,(458) 873-9045,615350,Finan Center,Lugefda,MI,17319,$3705.39,WHITE
1071,Clarence Austin,leb@vezur.me,(255) 704-5314,637982,Fuodo Terrace,Wofsezon,MS,45635,$2421.73,WHITE
1072,Elsie Stevens,musin@ejzo.mx,(405) 548-7651,387740,Fikiwa Parkway,Ujedomow,ID,88571,$1286.67,WHITE
1073,Bettie Craig,watnavah@rorugwiz.net,(251) 570-6072,327465,Rurmi Square,Ulzadso,AR,93595,$1962.05,YELLOW
1074,Peter Nash,mari@mup.sa,(706) 333-2722,934768,Lobka View,Zimcucin,DC,26969,$4153.99,RED
1075,Jacob Wright,fumur@cikeces.md,(219) 720-7224,202839,Toaf Path,Fagidi,PA,92273,$6131.98,BLUE
1076,Inez Bradley,wekitter@ahowgug.kg,(304) 543-9624,318190,Vacpum Point,Ozolihe,KY,41275,$6757.55,WHITE
1077,Johanna King,hufsozcuj@ces.aw,(633) 245-9618,978512,Zagpu Pass,Kasfuso,TX,71754,$4534.08,BLUE
1078,Howard Hubbard,vossuf@te.ac,(466) 553-4092,882972,Vuljur Extension,Nekinla,CT,59178,$9195.88,GREEN
1079,Jesus Graves,evda@gu.tn,(528) 535-1634,032020,Covepe Pike,Ewmojam,WY,91750,$4108.36,GREEN
1080,Sara Goodwin,zebcik@ji.sy,(467) 877-5867,784449,Kimad Square,Irfodon,MO,79783,$8664.74,YELLOW
1081,Lena Myers,duejezo@vatej.mp,(436) 745-9888,958301,Jakik Court,Iteocan,OK,29773,$2957.24,RED
1082,Kenneth Alvarado,uwe@palvi.gl,(652) 370-2820,221101,Rirte Key,Dimfusnot,AR,80548,$5592.76,YELLOW
1083,Chris Davidson,eni@me.ml,(330) 321-3386,621954,Panwi Mill,Osjiteni,MA,15528,$3350.29,WHITE
1084,Jerome Pittman,erbemra@ni.vn,(559) 736-6157,384799,Gotwo Key,Usmowag,WV,00470,$6817.19,GREEN
1085,Nettie Norton,vidokzup@iz.gp,(941) 922-4217,677582,Uttib Parkway,Hatewder,AZ,31842,$2468.69,BLUE
1086,Rebecca McKenzie,jowe@padtak.cr,(858) 766-8574,339160,Umohig Plaza,Sirivu,ID,40203,$7047.10,GREEN
1087,Francis Flores,jipa@liwlevzos.cu,(681) 730-6626,321731,Negan Glen,Fonnutafu,DC,92904,$949.51,BLUE
1088,Lelia Cain,no@nuhol.tn,(509) 847-1175,527308,Nidmih Boulevard,Oviepupam,CA,25386,$741.94,WHITE
1089,Raymond Murray,nitaj@uzinen.fr,(939) 904-6667,829031,Vigge Drive,Kotiwbiv,MD,82981,$2157.62,WHITE
1090,Stanley Mendoza,naajaf@nuwo.ae,(974) 847-7701,636025,Umini Point,Lalzera,IL,67306,$5547.29,YELLOW
1091,Stanley Kelly,rujwe@it.cz,(845) 205-4614,760876,Fahica Trail,Muawozi,CA,40734,$3975.00,WHITE
1092,Vera Lowe,esrez@jahbo.sd,(452) 318-1263,250499,Hapci Road,Juzujo,WV,09424,$6299.62,RED
1093,Anthony Keller,iv@vi.pf,(943) 885-7802,366984,Ecofo Pike,Fihigrel,IL,52716,$8919.27,WHITE
1094,Maurice Hansen,ahinoire@heub.gov,(843) 525-6405,994354,Ripzil Plaza,Golbiga,OK,59786,$2079.41,YELLOW
1095,Hilda Stevens,zuptuslik@jiv.lt,(744) 839-8492,384413,Gofu Circle,Kabuloj,NY,90857,$5078.00,YELLOW
1096,Flora Hawkins,kod@jo.bj,(521) 804-2941,308914,Isacen Circle,Guzficoh,CA,39397,$4207.41,YELLOW
1097,Helen Ford,opemap@nu.ca,(300) 536-9374,108268,Ladbaz Ridge,Litephap,ME,80152,$9233.82,YELLOW
1098,Bettie Brewer,togtir@kozesi.gi,(522) 339-3700,730549,Pocsi Key,Gidaolo,AL,82828,$1834.72,WHITE
1099,Lora Obrien,uslewuv@mazihot.tk,(207) 694-3608,333365,Cezti Trail,Incibfon,OH,29743,$9739.22,GREEN
1100,Warren Benson,minazmuk@finlogfa.pw,(750) 357-6785,042126,Dekon Key,Kidbovgan,IL,50350,$3719.69,GREEN
